Location|Address|City|Hours|Phone Number|Eligibility|Limitations|Link
|4115 Lake Otis Pkwy|Anchorage|9 - 7 ||||
Fairbanks' Foundation Health Partners|9th Avenue & Noble Street|Fairbanks||907-458-2888|||
Baptist Health Drive-u|350 County Road 4|West Prattville|||||https://www.wsfa.com/2020/03/23/baptist-health-expand-drive-up-clinic-prattville/
Northeast Alabama Regional Medical Center|230 E 10th Street|Anniston|M-F 8:30 - 4:30 |256-235-5600|||
Waddell Family Medicine|902 West Washington St|Athens|M-F 8-4||||
Health Plus Fitness Center|1171 Gatewood Dr #101|Auburn||334-528-SICK |||https://www.eamc.org/patient-and-guests/covid-19-information/
Church of the Highlands Grandview|4700 Highlands Way|Birmingham|||||https://www.wvtm13.com/article/drive-thru-coronavirus-testing-in-birmingham-bessemer-and-tuscaloosa/31651212#
UAB Medicine|University Blvd & 22nd Street S|Birmingham|9:00 - 1:30 |205-975-1881|Appt only, call to schedule||https://www.birminghamal.gov/2020/03/30/covid-19-testing-sites-and-sick-clinics-available-in-birmingham/
Cahaba Medical Care|1308 Tuscaloosa Avenue|Birmingham||205-679-6325|https://www.surveymonkey.com/r/CMCcurbsideWE||https://www.al.com/coronavirus/2020/03/heres-where-you-can-get-tested-for-coronavirus-in-alabama.html
John Hunt Park|2151 Airport Rd SW|Huntsville|9 - 5 ||||https://www.al.com/coronavirus/2020/03/heres-where-you-can-get-tested-for-coronavirus-in-alabama.html
Medical Arts Building Parking Lot|230 E 10TH St|Anniston|8:30 - 4:30 ||||http://www.annistonal.gov/uploadedFiles/File/RMC_-_DRIVE_THRU_TESTING_PROCESS_FINAL.pdf
Ladd-Peebles Stadium|1621 Virginia St|Mobile||||Waiting for testing kits|
The Grounds in Mobile|1035 Cody Rd N|Mobile||||Waiting for testing kits|
Infirmary Health|5 Mobile Infirmary Circle|Mobile|10 - 2 |251-341-CV19|||https://www.infirmaryhealth.org/coronavirus-covid-19
Greater Mobile Urgent Care|2350 Schillinger Road|Mobile||251-633-0123|||https://www.al.com/coronavirus/2020/03/heres-where-you-can-get-tested-for-coronavirus-in-alabama.html
|2936 Marti Lane|Montgomery|7 - 7 |334-747-0150|||https://www.wsfa.com/2020/03/16/drive-up-coronavirus-testing-site-opens-montgomery/
DCH Regional Medical Center|809 University Blvd E|Tuscaloosa|8 - 5 ||||https://www.dchsystem.com/Articles/coronavirus_update_and_health_system_preparations.aspx
Assurance Scientific Laboratories|2868 Acton Road||||||
Scottsboro Health Center|70 Freedom Drive|Scottsboro|M - Fr 1 u2013 5 |256-574-5508|||https://www.waaytv.com/content/news/Coronavirus-testing-sites-in-Jackson-County--569277371.html
North Sand Mountain Health Center|29810 Alabama Hwy 71|Bryant|M - Fr 1 u2013 5|256-597-2135|||
Section Health Center|60 Main Street North|Section|M - Fr 1 u2013 5|256-228-3471|||https://www.waaytv.com/content/news/Coronavirus-testing-sites-in-Jackson-County--569277371.html
3Circle Church|10274 Alabama Highway 104-A|Fairhope|Opens 7:30 a.m.||||https://www.al.com/coronavirus/2020/03/heres-where-you-can-get-tested-for-coronavirus-in-alabama.html
Fyffe Health Center|34617 AL Hwy 75|Fyffe|M - Fr 1 u2013 5|256-623-5242|||https://www.waaytv.com/content/news/Coronavirus-testing-sites-in-Jackson-County--569277371.html
Woodville Health Center|13624 County Road 8|Woodville|M - Fr 1 u2013 5|256-776-5615|||https://www.waaytv.com/content/news/Coronavirus-testing-sites-in-Jackson-County--569277371.html
Fort Payne Health Center|3840 Gault Avenue North|Fort Payne|M - Fr 1 u2013 5|256-844-4975|||https://www.waaytv.com/content/news/Coronavirus-testing-sites-in-Jackson-County--569277371.html
Dallas County Health Department|100 Samuel O Moseley Dr|Selma|M/W from 10 a.m. until 2 p.m.|888-264-2256|||https://www.wsfa.com/2020/03/30/dallas-county-open-drive-thru-coronavirus-testing-center/
|1306 W. Collin Raye Drive|De Queen|Wed, April 8 from 10 a.m.- 4 p.m.||||https://www.thv11.com/article/news/health/coronavirus/private-arkansas-lab-secures-30000-covid-19-tests-testing-available-at-new-life-church/91-a0054402-df3a-451b-a764-a5b663d46f01
|103 East 3rd Avenue|Crossett|Mon, April 13 from 11 a.m. - 5 p.m.||||
New Life Church|8000 Crystal Hill Road|Little Rock|every day 10-4 until 4/11/2020||||https://www.thv11.com/article/news/health/coronavirus/private-arkansas-lab-secures-30000-covid-19-tests-testing-available-at-new-life-church/91-a0054402-df3a-451b-a764-a5b663d46f01
UAMS Health|Shuffield Dr. & Jack Stephens Dr.|Little Rock|8 a.m. u2013 8 p.m daily|(501) 686-8000|||
|2090 S. Promenade Blvd|Mercy||479-717-7585|||
Eureka Springs Family Clinic|146 Passion Play Road|Eureka Springs|8 -4:30 M-F||||
Quest Diagnostics||Bentonville|||health workers/first responders prioritizwed||https://www.ualrpublicradio.org/post/arkansas-covid-19-death-toll-rises-10-lawmaker-tests-positive
Baptist Health Medical Center||Heber Springs||(501) 887-3279|call to schedule||https://www.nwaonline.com/news/2020/apr/02/2-state-firms-begin-drive-thru-testing-/
Baptist Health||Stuttgart||(870) 673-7211|||https://www.nwaonline.com/news/2020/apr/02/2-state-firms-begin-drive-thru-testing-/
Hot Spring County Health Unit||Malvern|||||https://www.nwaonline.com/news/2020/apr/02/2-state-firms-begin-drive-thru-testing-/
Baptist Health Family Clinic-Caddo Valley||Arkadelphia|||||https://www.nwaonline.com/news/2020/apr/02/2-state-firms-begin-drive-thru-testing-/
Redirect Health Centers Clinic|16390 N 59th Ave #200|Glendale||623-334-4000|||https://redirecthealth.com/
Banner Desert Medical Center|1400 S Dobson Rd|Mesa|||no call required|charged as ER visit|
Banner Health|Multiple locations, call for details|Phoenix|7-5|844-549-1851|call for pre-screen; symptomatic|Not releasing test locations, call for appt|https://www.bannerhealth.com/patients/patient-resources/covid-19#Tested
Maready Medical|4135 S. Power Rd. #113|Mesa||480-626-2444|||https://www.fox10phoenix.com/news/list-coronavirus-testing-locations-in-arizona
|446 Fort Tuthill Loop|Flagstaff|10 - 3|928-679-7300|||https://www.fox10phoenix.com/news/list-coronavirus-testing-locations-in-arizona
Banner Health|Tuscon|Tuscon|7 a.m. to 6 p.m.|844-549-1851|||https://www.bannerhealth.com/patients/patient-resources/covid-19#Tested
VA Parking Lot 15|100 Constitution Ave|Los Angeles||211|preregister here: http://coronavirus.lacity.org/testing||https://losangeles.cbslocal.com/2020/04/08/new-coronavirus-testing-sites-open-in-la-county/
Lincoln Park|3501 Valley Blvd|Los Angeles||211|preregister here: http://coronavirus.lacity.org/testing||https://losangeles.cbslocal.com/2020/04/08/new-coronavirus-testing-sites-open-in-la-county/
Vista Complete Care|13555 BOWMAN RD SUITE 100|Auburn||(530) 885-3951|||http://www.vistacompletecare.com/
Riverside University Health Center|26520 Cactus Ave|Moreno Valley||(800) 720-9553|call for appt||https://www.desertsun.com/story/news/health/2020/03/18/coronavirus-update-palm-springs-shelter-place-begins-grocery-stores-open-seniors/5075733002/
Northridge Hospital Medical Center|18460 Roscoe Blvd|Northridge||211|preregister here; http://coronavirus.lacity.org/testing||https://losangeles.cbslocal.com/2020/04/08/new-coronavirus-testing-sites-open-in-la-county/
Pomona Fairplex|Gate 17, W. McKinley/Fairplex Drive|Pomona|||high risk||https://www.nbclosangeles.com/news/local/coronavirus-covid-19-test-testing-los-angeles-county/2340127/
Antelope Valley Mall|1233 Rancho Vista Blvd|Palmdale|||high risk||https://www.nbclosangeles.com/news/local/coronavirus-covid-19-test-testing-los-angeles-county/2340127/
||Glendale|||||
South Bay Galleria|1815 Hawthorne Boulevard|Redondo Beach|||symptomatic and high risk - register here https://lacovidprod.service-now.com/rrs||https://www.randomlengthsnews.com/2020/04/06/covid-19-testing-sites-in-south-bay/
Altamed|6336 Passons Blvd|Pico Rivera||211|preregister here; http://coronavirus.lacity.org/testing||https://losangeles.cbslocal.com/2020/04/08/new-coronavirus-testing-sites-open-in-la-county/
Altamed|8627 Atlantic Ave|South Gate||211|preregister here; http://coronavirus.lacity.org/testing||https://losangeles.cbslocal.com/2020/04/08/new-coronavirus-testing-sites-open-in-la-county/
||San Rafael|||referral||https://abc7news.com/coronavirus-in-california-cases-corona-viruscalifornia/6056897/
|1254 s camden dr|Los Angeles|||||
Long Beach City College|1305 E. Pacific Coast Hwy|Long Beach||211|preregister here; http://coronavirus.lacity.org/testing||
Sonia M Gonzalez||SoCal||3234488054|||
|11100 Warner ave|Fountain Valley|||||
AltaMed|972 Goodrich Blvd|Commerce||211|preregister here: http://coronavirus.lacity.org/testing||https://losangeles.cbslocal.com/2020/04/08/new-coronavirus-testing-sites-open-in-la-county/
Palos Verdes Medical Group|550 Deep Valley Drive, Suite 319|Rolling Hills Estates|1-5|310-544-6858|appt - call ahead||http://pvmedgroup.com
North East Medical Services|211 Eastmoor Ave|Daly City||650-550-3923|NEMS patients with appts||
North East Medical Services|870 Lundy Ave|San Jose||408-573-9686|NEMS patients with appts||
San Francisco General|23rd Street & Potrero Avenue|San Francisco|M-F, 9 - 6 ||||https://www.sfchronicle.com/bayarea/article/Coronavirus-live-updates-news-bay-area-15169654.php
Academic Family Medicine Center|300 Hillmont Ave, 93003|Ventura|||||
Las Islas Family Medical Group|2400 S C St, 93003|Oxnard|||||https://ktla.com/news/ventura-county-setting-up-more-drive-through-coronavirus-test-sites-as-cases-rise-to-13/
St. Jude Heritage Medical Group|4300 Rose Dr.|Yorba Linda|||||
Hotchkins Memorial Training Center|1700 Stadium Way, 90012|Los Angeles|||pre-screened before arrival with referral||https://www.dailynews.com/2020/03/25/long-lines-big-demand-still-limited-la-area-drive-through-coronavirus-testing-inches-ahead/
Hansen Dam|11798 Foothill Blvd, 91342|Lakeview Terrace|||pre-screened before arrival with referral||https://www.dailynews.com/2020/03/25/long-lines-big-demand-still-limited-la-area-drive-through-coronavirus-testing-inches-ahead/
Crenshaw Christian Center| 1132 W 78th St, 90044|Los Angeles|||pre-screened before arrival with referral||https://www.dailynews.com/2020/03/25/long-lines-big-demand-still-limited-la-area-drive-through-coronavirus-testing-inches-ahead/
West LA Veteranu2019s Administration Lot 15|11301 Wilshire Blvd, 90073|Los Angeles|||pre-screened before arrival with referral||https://www.dailynews.com/2020/03/25/long-lines-big-demand-still-limited-la-area-drive-through-coronavirus-testing-inches-ahead/
SDCCU Stadium|9449 Friars Rd, 92108|San Diego|||referrals only|only testing healthcare workers, first responders, people with underlying conditions, and older people living in group homes,|
Adventist Health satellite location|1233 Plumas Avenue,|Yuba City|9 a.m. u2013 4 p.m. M - Th; 9 a.m. u2013 noon Friday.|530-671-2020|||
Peach Tree Health testing site|724 5th St, Marysville, CA 95901|Yuba City|7a-9p m-f; 7-7 sa; 7-5 su|530-749-3242 |call ahead so they expect you ||https://sacramento.cbslocal.com/2020/03/16/coronavirus-testing-in-yuba-and-sutter-counties/
Ampla Health Test Site|1000 Sutter Street|Yuba City|m-f|530-812-2031|||https://sacramento.cbslocal.com/2020/03/16/coronavirus-testing-in-yuba-and-sutter-counties/
PIH Health|12401 Washington Blvd, 90602|Whittier|||||
Huntington Hospital|100 W California Blvd, 91105|Pasadena|||||
Golden Valley Health Clinic|401 Lesher Dr, 95348|Ceres|m-f, 9-3|866-682-4842|referrals only, call ahead ||https://www.gvhc.org/gvhccovid19/
Golden Valley Health Clinic|1920 Memorial Dr, 95307|Merced|m-f, 9-3|866-682-4842|referrals only, call ahead ||https://www.gvhc.org/gvhccovid19/
Ridgecrest Regional Hospital|1081 N China Lake Blvd,|Ridgecrest||text the word "SCREENING" to 833-RRH-4YOU|Fever of 100.4+ needed + other symptoms||https://www.facebook.com/pg/RidgecrestRegionalHospital/posts/?ref=page_internal; https://www.bakersfield.com/news/breaking/ridgecrest-regional-establishes-drive-thru-testing-for-covid/article_548a7066-6d41-11ea-a5ae-5f84fa4d28ad.html
UCSF Laurel Heights|3333 California St|San Francisco|9-5 m-f||UCSF employees/One Medical patients; appts only after screened by occupational health services||https://www.ucsf.edu/news/2020/03/416976/ucsf-health-sets-drive-through-testing-pre-screened-high-risk-employees
||Riverside|||get screened first on site||https://www.projectbaseline.com/study/covid-19/
||San Joaquin Valley|||get screened first on site||https://www.projectbaseline.com/study/covid-19/
||San Mateo|||must complete online screening prior|appts only|https://www.projectbaseline.com/study/covid-19/
||Sacramento|starts at 12|||appts only|https://www.projectbaseline.com/study/covid-19/
Elevated Health|18800 Delaware Street|Huntington Beach||(714) 916-5210||$200|https://www.facebook.com/pg/ElevatedHealthHB/posts/?ref=page_internal; https://www.latimes.com/california/story/2020-03-20/drive-through-coronavirus-testing-comes-to-orange-county
 Diamond Stadium|500 Diamond Dr,|Lake Elsinore|9:30-3|800-945-6171|residents who live within a 50-mile radius of the City of Riverside|appts only; must be screened as high risk|https://www.projectbaseline.com/study/covid-19/; https://www.pe.com/2020/03/22/coronavirus-drive-through-testing-in-lake-elsinore-will-continue-and-expand/
Kaiser - multiple locations||Southern California||866-454-8855|Kaiser member w PCP referral||https://www.dailynews.com/2020/03/19/coronavirus-test-sites-grow-in-la-county-but-you-must-be-sick-and-follow-protocol-to-be-tested/
Kaiser - multiple locations||San Francisco Bay Area||866-454-8855|Kaiser member w PCP referral||https://paloaltoonline.com/news/2020/03/15/stanford-kaiser-hold-drive-through-coronavirus-testing-but-you-cant-just-head-over-there
Sutter Health|multiple locations - not public|||(866) 961-2889|Doctor's order; call if you are Sutter patient to get screened||https://www.sutterhealth.org/for-patients/health-alerts/2019-novel-coronavirus
Stanford Medicine - Express Careu2019s Hoover Pavilion|211 Quarry Rd|Palo Alto|9-6; 7 days a week|650-736-5211|Physician referra w/ symptomsl; need appt; cannot use Uber/Lyft/taxi|CA resident; need to present ID when scheduling appt|https://med.stanford.edu/news/all-news/2020/03/stanford-offers-drive-through-coronavirus-test.html
North East Medical Services|211 Eastmoor Ave|Daly City||650-550-3923|NEMS patients with appts||
North East Medical Services|870 Lundy Ave|San Jose||408-573-9686|NEMS patients with appts||
KelvinBio - San Francisco||San Francisco|||order test - bring to location and DIY; high-priority (CDC guidelines) patients|$190|https://kelvinbio.com/
KelvinBio - Oakland||Oakland|||order test - bring to location and DIY; high-priority (CDC guidelines) patients|$190|https://kelvinbio.com/
High Desert Medical Group|43839 15th St. W|Lancaster|||||https://losangeles.cbslocal.com/2020/04/08/new-coronavirus-testing-sites-open-in-la-county/
Fire station #7 (across the street)|28270 Huntwood|Hayward|9-6|(510) 583-4949||Fever of 100.4+ needed|https://www.hayward-ca.gov/discover/news/mar20/hayward-launch-coronavirus-testing-center
San Joaquin General Hospital|500 W Hospital Rd|French Camp|10-3||||
Sierra Vista Family Medical Clinic|1227 E Los Angeles Ave, 93065|Simi Valley|||||
SF Medical Center|Geary Boulevard|San Francisco|||Kaiser member w PCP referral||
UC San Diego Health||San Diego||800-926-8273|call for screening then receive further direction||
Cogent Family Healthcare|525 South Drive Suite 107|Mountain View|||schedule through website||https://www.simscovid.com/
One Medical|1004 Northgate Drive|San Rafael||1-888-ONEMED1|appt only||https://www.onemedical.com/blog/live-well/covid-19-testing-one-medical
One Medical|3333 California St.|San Francisco||1-888-ONEMED1|appt only||https://www.onemedical.com/blog/live-well/covid-19-testing-one-medical
One Medical|1299-A Oakmead Parkway|Sunnyvale||1-888-ONEMED1|appt only||https://www.onemedical.com/blog/live-well/covid-19-testing-one-medical
One Medical|10250 Santa Monica Blvd|Los Angeles||1-888-ONEMED1|appt only||https://www.onemedical.com/blog/live-well/covid-19-testing-one-medical
Altamed West Covina Urgent Care|1300 S. Sunset Ave|West Covina||211|preregister here: http://coronavirus.lacity.org/testing||https://losangeles.cbslocal.com/2020/04/08/new-coronavirus-testing-sites-open-in-la-county/
East Los Angeles College|1301 Avenida Cesar Chavez|Monterey Park||211|high risk individuals prioritized; visit coronavirus.lacity.org/testing to get screened||https://boyleheightsbeat.com/drive-through-covid-19-testing-site-to-open-at-east-la-college/
Charles R. Drew University|1731 E 120th St|Los Angeles|||preregister here: http://coronavirus.lacity.org/testing||https://losangeles.cbslocal.com/2020/04/08/new-coronavirus-testing-sites-open-in-la-county/
Rose Bowl|1001 Rose Bowl Dr|Pasadena|11-3||preregister here: http://coronavirus.lacity.org/testing||https://losangeles.cbslocal.com/2020/04/08/new-coronavirus-testing-sites-open-in-la-county/
|28387 Coral Dune Drive|Menifee|||||
West LA Veteranu2019s Administration Lot|11301 Wilshire Blvd|Los Angeles|||veterans||
||Sherman Oaks|||get screened here - https://www.projectbaseline.com/study/covid-19/||
Aurora Health & Wellness Plaza|10680 Del Mar Parkway|Aurora|9 a.m. to noon and 1 p.m. to 4 p.m.||||https://denver.cbslocal.com/2020/03/31/coronavirus-colorado-drive-thru-covid-19-testing-site-wheat-ridge/
JeffCo Family Health Services Center|7495 West 29th Avenue|Wheat Ridge|9 a.m. to 1 p.m.||||https://denver.cbslocal.com/2020/03/31/coronavirus-colorado-drive-thru-covid-19-testing-site-wheat-ridge/
VA|955 W Fillmore St|Colorado Springs|M-F 8:30-3||veterans||https://www.kktv.com/content/news/Veterans-now-have-their-own-COVID-19-testing-site-in-Colorado-Springs-569322421.html
VA||Aurora|||veterans||https://www.kktv.com/content/news/Veterans-now-have-their-own-COVID-19-testing-site-in-Colorado-Springs-569322421.html
Danbury Hospital|95 Locust Ave.|Danbury|M-Sat 8:30 a.m. to 3:30 p.m||||https://www.westernconnecticuthealthnetwork.org/novel-coronavirus-covid19-update/covid19-collection-site-information#_ga=2.48465382.1541741055.1585055267-1007481626.1585055267
Greenwich Hospital - lower level physician parking lot|5 Perryridge Road|Greenwich|M-F 8-5, S-S 9-3|203-ASK-YNHH|||https://www.ci.milford.ct.us/2019-novel-coronavirus-covid-19-information/pages/yale-new-haven-system-testing-sites
Bridgeport Hospital - Ahlbin Center|226 Mill Hill Ave|Bridgeport|M-F 8-5, S-S 9-3|203-ASK-YNHH|||https://www.ci.milford.ct.us/2019-novel-coronavirus-covid-19-information/pages/yale-new-haven-system-testing-sites
Lawrence & Memorial Hospital - Parking lot A|365 Montauk Ave|New London|M-F 9-5|203-ASK-YNHH|||https://www.ci.milford.ct.us/2019-novel-coronavirus-covid-19-information/pages/yale-new-haven-system-testing-sites
Hartford Hospital - Education and Resource Center|560 Hudson Street|Hartford|Mon-Fri, 9am-5pm, Sat-Sun, 2-5pm.||||https://hartfordhealthcare.org/health-wellness/coronavirus/resources
Backus Hospital|326 Washington Street|Norwich|9am-Noon, daily||||https://hartfordhealthcare.org/health-wellness/coronavirus/resources
Charlotte Hungerford Hospital|540 Litchfield Street|Torrington|Mon-Fri, 9am-5pm, Sat-Sun, 2-5pm.||||https://hartfordhealthcare.org/health-wellness/coronavirus/resources
MidState Medical Center|435 Lewis Avenue|Meriden|Mon-Fri, 9am-5pm, Sat-Sun, 2-5pm.||||https://hartfordhealthcare.org/health-wellness/coronavirus/resources
St. Vincentu2019s Medical Center|2979 Main Street|Bridgeport|Mon-Fri, 9am-5pm, Sat-Sun, 2-5pm.||||https://hartfordhealthcare.org/health-wellness/coronavirus/resources
Griffin Hospital|130 Division Street|Derby|M-F 8-5m S-S 8-3| 203-437-6815||appt only|https://www.griffinhealth.org/coronavirus-covid19-information/covid-19-test-collection-site
Johnson Memorial Hospital - Community Medical Education Center|201 Chestnut Hill Road|Stafford Springs|9-onwards, daily||||https://www.trinityhealthofne.org/body.cfm?id=4342&iirf_redirect=1
Saint Francis Hospital - Gengras Building|1000 Asylum Street|Hartford|9-onwards, daily||||https://www.trinityhealthofne.org/body.cfm?id=4342&iirf_redirect=1
Saint Mary's Hospital - lower level of the Visitor's Garage|56 Franklin St, Waterbury, CT 06706|Waterbury|9-onwards, daily||||https://www.trinityhealthofne.org/body.cfm?id=4342&iirf_redirect=1
Norwalk Hospital |34 Maple St, Norwalk, CT 06850|Norwalk|M-Sat 8:30-3:30||||https://www.westernconnecticuthealthnetwork.org/novel-coronavirus-covid19-update/covid19-collection-site-information#_ga=2.48465382.1541741055.1585055267-1007481626.1585055267
UConn Health|263 Farmington Avenue |Farmington|M-F 10-2|860-679-1869|||https://health.uconn.edu/coronavirus/
Bridgeport Hospital Milford Campus|831 Boston Post Road|Milford||833-ASK-YNHH|||https://www.bridgeporthospital.org/news/bridgeport-hospital-starts-covid19-testing-in-milford.aspx
Bridgeport Hospital|267 Grant St|Bridgeport|M-F 8-5, Sat 9-3||||https://www.thehour.com/news/coronavirus/article/Drive-thru-COVID-19-testing-location-in-15140116.php
Murphy Medical Associates |1000 Main Street|Stratford |10-12 M-Th|(203) 658-6051|||https://coronatestct.com/
Murphy Medical Associates |468 South Avenue|New Canaan|09:30-12 F|(203) 658-6051|||https://coronatestct.com/
Murphy Medical Associates |88 North Avenue|Westport|8:30-12 T|(203) 658-6051|||https://coronatestct.com/
Bristol Hospital|145 Queen St|Bristol|daily 8-4||||https://www.bristolhealth.org/Your-Health/Coronavirus/Coronavrus-Specimen-Collection#CollectionLocation
Waterbury Hospital - Emergency Department |68 Robbins Street|Waterbury|8-4 daily|203-575-5250|||https://www.waterburyhospital.org/coronavirus/#resources
Yale New Haven Hospital|50 Sargent Drive|New Haven|M-F 8-4:30|203-ASK-YNHH|||https://www.ci.milford.ct.us/2019-novel-coronavirus-covid-19-information/pages/yale-new-haven-system-testing-sites
Westhill High School|125 Roxbury Rd|Stamford |M-F 7-4|1-883-508-8378|||https://ctmirror.org/2020/03/30/connecticut-cities-gearing-up-for-covid-19-surge-as-state-waits-for-more-medical-supplies/
Murphy Medical Associates |460 Shippan Avenue |Stamford |6-8 M-F|(203) 658-6051|||https://coronatestct.com/
AllCare |1710 Rhode Island Ave NW|DC|M-F 6p-7p; S-Su noon-1||telemedicine visit first||https://allcarefamilymed.com/coronavirus
George Washington University Hospital|900 23rd St NW, Washington, DC 20037|DC|||referral from PCP||https://www.washingtonpost.com/local/getting-tested-for-coronavirus-in-virginia-maryland-dc/2020/03/26/5e19f608-6de9-11ea-a3ec-70d7479d83f0_story.html
Washington Redskins stadiumu2019s parking lot|1600 Fedex Way, Landover, MD 20785|DC|||referral from PCP||
Kaiser||DC|9-5, every day||members only||https://www.washingtonpost.com/local/getting-tested-for-coronavirus-in-virginia-maryland-dc/2020/03/26/5e19f608-6de9-11ea-a3ec-70d7479d83f0_story.html
United Medical Center|1310 Southern Ave SE, Washington, DC 20032|DC|||||https://www.washingtonpost.com/local/getting-tested-for-coronavirus-in-virginia-maryland-dc/2020/03/26/5e19f608-6de9-11ea-a3ec-70d7479d83f0_story.html
Childrenu2019s National Hospital|125 Michigan Ave NE Washington, D.C.|DC|||referral; children only||https://childrensnational.org/Healthcare%20Providers/Refer%20a%20Patient/mobile%20testing
Upper Chesapeake Medical Center - parking lot|500 Upper Chesapeake Dr|DC|11-3 mwf||referral||https://www.washingtonpost.com/local/getting-tested-for-coronavirus-in-virginia-maryland-dc/2020/03/26/5e19f608-6de9-11ea-a3ec-70d7479d83f0_story.html
One Medical|1690 36th St NW|DC||1-888-ONEMED1|Appointment only||https://www.onemedical.com/blog/live-well/covid-19-testing-one-medical
||Newark|||||
Chase Center on the Riverfront|815 Justison St|Wilmington|||||
Saint Francis Healthcare|1072 Justison St, Wilmington, DE 19801|Wilmington|||||
Bayhealth|640 S State St, Dover, DE 19901|Dover|||||
Beebe Healthcare|28538 Dupont Blvd, Millsboro, DE 19966|Millsboro|||||
Beebe Healthcare||Frankford|||||
Nancticoke||Seaford|||||
Raymond James Stadium|4201 N. Dale Mabry Highway|Tampa|resumes 4/8/2020; M-F 9-5|(813) 272-5900|symptomatic and pre-registered - call||https://www.hillsboroughcounty.org/en/residents/public-safety/emergency-management/stay-safe/getting-tested
Lee Convenient Care|4771 S Cleveland Avenue|Fort Myers|12-4||referral||https://www.winknews.com/2020/03/16/mobile-testing-centers-in-swfl-open-monday/
Ballpark of the Palm Beaches|5444 Haverhill Road|West Palm Beach||561-642-1000|call first for pre-screen||
Doris Ison Health Center|10300 SW 216th St.|Cutler Bay|9 a.m. to noon|305-252-4820||Appt only|https://www.miaminewtimes.com/news/miami-drive-thru-coronavirus-testing-where-to-get-tested-for-covid-19-11605465
Larkin Community Hospital Palm Springs Campus|1475 W. 49th St.|Hialeah||305-830-0790|||https://www.miaminewtimes.com/news/miami-drive-thru-coronavirus-testing-where-to-get-tested-for-covid-19-11605465
Hard Rock Stadium|347 Don Shula Dr.|Miami Gardens|9 a.m. to 5 p.m.|305-499-8767||Must be symptomatic and >65|https://www.miaminewtimes.com/news/miami-drive-thru-coronavirus-testing-where-to-get-tested-for-covid-19-11605465
Marlins Park|501 Marlins Way|Miami||305-499-8767||Must be symptomatic and >65|https://www.miaminewtimes.com/news/miami-drive-thru-coronavirus-testing-where-to-get-tested-for-covid-19-11605465
Charles Hadley Park|1350 NW 50th St.|Miami||305-960-5050|||https://www.local10.com/news/local/2020/03/20/map-shows-drive-through-testing-locations-in-florida/
CHI Marathon Health Center|2805 Overseas Highway|Marathon|11 a.m.-12:30 p.m. on Saturday|305-252-4820|||https://www.local10.com/news/local/2020/03/20/map-shows-drive-through-testing-locations-in-florida/
Krupa Center|3250 Meridian Pkwy.|Weston|8 a.m. to 5 p.m.|954-659-5951||Appt only|https://www.miaminewtimes.com/news/miami-drive-thru-coronavirus-testing-where-to-get-tested-for-covid-19-11605465
Broward Health|Call for details|||954-320-5730||Appt only|https://www.miaminewtimes.com/news/miami-drive-thru-coronavirus-testing-where-to-get-tested-for-covid-19-11605465
C.B. Smith Park|900 N. Flamingo Rd.|Pembroke Pines|9 a.m. to 5 p.m.|||HCPs, recent travel abroad, and >65|https://www.miaminewtimes.com/news/miami-drive-thru-coronavirus-testing-where-to-get-tested-for-covid-19-11605465
Festival Flea Market|2900 W. Sample Rd.|Pompano Beach|7 a.m. to 7 p.m.|954-320-5730|||https://www.local10.com/news/local/2020/03/20/map-shows-drive-through-testing-locations-in-florida/
Marathon Community Park|200 City Marina|Key West|10 a.m. to 1 p.m.|305-252-4820|||https://www.miaminewtimes.com/news/miami-drive-thru-coronavirus-testing-where-to-get-tested-for-covid-19-11605465
Convention Center|9400 Universal Blvd.|Orlando|9 a.m. to 5 p.m.||||
Viera Clinic|2555 Judge Fran Jamieson Way|Viera||321-454-7141|call for pre-screen if symptomatic||https://www.floridatoday.com/story/news/2020/04/08/coronavirus-brevard-county-testing-fdoh-expands-drive-thru-test-requirements/2967909001/
Titusville Clinic|611 N. Singleton Ave|Titusville||321-454-7141|call for pre-screen if symptomatic||https://www.floridatoday.com/story/news/2020/04/08/coronavirus-brevard-county-testing-fdoh-expands-drive-thru-test-requirements/2967909001/
Melbourne Clinic|601 E. University Blvd|Melbourne||321-454-7141|call for pre-screen if symptomatic||https://www.floridatoday.com/story/news/2020/04/08/coronavirus-brevard-county-testing-fdoh-expands-drive-thru-test-requirements/2967909001/
OMNI Healthcare|1344 S. Apollo Blvd|Melbourne|8 a.m. to 6 p.m.|321-802-551|First responders, anyone with minimal symptoms of a cough, anyone over age 45 with one chronic illness, anyone over the age of 60|Patients will have to be pre-screened and pre-register|https://www.omnihealthcare.com/
||Homestead|||||
The Villages Polo Club|703 N Buena Vista Blvd|The Villages|||||https://ufhealthcovid.com/
Premiere Medical Associates|1580 Santa Barbara Blvd|The Villages||352-259-2159|||
Cleveland Clinic|10000 SW Innovation Way, Port St.|Lucie|9a and 5p|772-226-4846|||
BayCare Health System|36245 U.S. Highway 27|Haines City|||||https://baycareanywhere.org/landing.htm
BayCare Health System|4821 U.S. Highway 19|New Port Richey|||||https://baycareanywhere.org/landing.htm
BayCare Health System|900 Carillon Parkway|St. Petersburg|||||https://baycareanywhere.org/landing.htm
Cleveland Clinic (South County Civic Center)|16700 Jog Road|Delray Beach||561-804-0250|||
Cleveland Clinic (Indian River Hospital Employee Parking Lot)|1000 36th Street|Vero Beach|9-5|772-226-4846|call for pre-screen; must meet testing criteria - https://s33330.pcdn.co/wp-content/uploads/2020/03/Clinical_Guidance_Chart_3-15-20_Final-1.pdf||https://www.indianrivermedicalcenter.com/new-coronavirus-covid-19-updates/
Brownsville Community Center|3200 W. De Soto Street|Pensacola||904-819-5155|||
Northwood Centre parking lot|1940 N Monroe St Tallahassee, FL 32303|Tallahassee|M-F 11-6||||https://www.wctv.tv/content/news/UPDATE--More-than-1000-people-tested-for-COVID-at-Tallahassee-site-569351981.html
UCF||Orlando|M-F 9- 5|855-282-4860|call for appt||https://www.mynews13.com/fl/orlando/news/2020/04/05/florida-second-to-new-york-in-coronavirus-testing
South County Civic Center|16700 Jog Road|Delray Beach|M-F 8-4; Sa 8-12|561-804-0250|call for appt||https://www.wpbf.com/article/will-dependents-receive-stimulus-checks/32056633
Twin Lakes Park|6700 Clark Road|Sarasota|8-12||referral||http://sarasota.floridahealth.gov/newsroom/2020/03/covd19-stand-down.html
Life Hope|5091 Nelson Brogdon Blvd|Sugar Hill|M-F 9-5|877-262-1003|||https://www.lifehope.com/
Life Hope|4350 N Point Pkwy|Alpharetta|M-F 9-5|877-262-1003|||https://www.lifehope.com/
AllCare|3867 Roswell Rd NE|Atlanta||M-F 5p-6p; Sa-Su 1-2|telemedicine pre-screen||https://allcarefamilymed.com/coronavirus
Oconee Health Campus|1305 Jennings Mill Rd.|Watkinsville|9 a.m. to 3 p.m.|866-460-1119||Appt only|
Georgia Department of Public Healthu2019s West Central Health District|2100 Comer Ave.|Columbus|9 a.m. to 4 p.m.|855-962-0955|||https://www.ledger-enquirer.com/news/coronavirus/article241376946.html
|352 Peachtree Place||M-F 9-6 Sa 10-5 Su 10-4||preregister here: www.CVS.com/minuteclinic/covid-19-testing||https://www.gwinnettdailypost.com/local/health/free-covid-19-testing-program-launched-at-georgia-tech/article_6a835f4a-780e-11ea-9bf0-c7b6d9249eb3.html
GCFC Health Services|5378 Lawrenceville hwy|Lilburn||4704805688|||
Kaka'ako Waterfront Park|102 Ohe St.|Honolulu|8 a.m. to 2 p.m.||||
Old Kona Airport Park|75-5560 Kuakini Hwy|Kailua-Kona|8 a.m. to 3 p.m.|||Symptomatic, recent travel abroad|
Urgent Care Hawaii||Pearl City|||||
Urgent Care Hawaii||Kapolei|||||
Urgent Care Hawaii||Kailua|||||
Waipio Peninsula Soccer Complex|93-061 Waipio Point Access Rd|Waipahu|8 a.m. to noon||||
|3900 28th Ave Dr|Moline|M-F 8 u2013 8; S-S 9 u2013 4:30 p.m.|(563) 421-3820|referral from PCP or www.genesishealth.com/virtual ||https://www.genesishealth.com/coronavirus-disease-2019-covid-19/
|1520 West 53rd Street|Davenport|M-F 8 u2013 8; S-S 9 u2013 4:30 p.m.|(563) 421-3820|referral from PCP or www.genesishealth.com/virtual ||https://www.genesishealth.com/coronavirus-disease-2019-covid-19/
Siouxland District Health||Woodbury County|||referral/appt||https://www.iowapublicradio.org/post/drive-thru-testing-covid-19-starts-woodbury-county#stream/0
The Iowa Clinic||West Des Moines|M-Friday 8-4; S-Sunday 8-2|515.875.9268|symptomatic, appt only||
Mercy Iowa City|5950 University Avenue|Coralville|||||https://kwwl.com/2020/03/31/drive-thru-covid-19-testing-in-coralville/
||Sioux City|12-4|641-494-3543, 641-494-3546 or 641-494-3547|need referral - appts will then be scheduled by central collecting entity||https://siouxcityjournal.com/news/local/covid--testing-site-opens-in-sioux-city/article_9cceceb9-5b98-531a-b070-f5d18929fa52.html
North Iowa Event Center|3700 4th St SW, 50401|Mason City|9-5, m-f|641-494-3543, 641-494-3546 or 641-494-3547|||https://kttc.com/2020/03/18/drive-through-testing-site-now-open-in-mason-city/
Meridian Health Plaza|3025 W. Cherry Ln.|Meridian|8 a.m. to 8 p.m.|208-302-2683|||
St. Lukeu2019s Meridian Hospital|520 S. Eagle Rd.|Meridian|10 a.m. to 6 p.m.|208-381-9500|||https://www.idahostatesman.com/news/coronavirus/article241274011.html
St. Lukeu2019s Wood River Hospital|100 Hospital Dr.|Ketchum|10 a.m. to 6 p.m.||||https://www.idahostatesman.com/news/coronavirus/article241274011.html
St. Luke's Boise|190 E Bannock St, Boise, ID 83712|Boise|10 a.m. to 6 p.m.||||https://www.idahostatesman.com/news/coronavirus/article241274011.html
Saltzer Health|9850 W. St. Lukeu2019s Drive|Nampa|8 a.m. to 8 p.m.||||https://www.idahostatesman.com/news/coronavirus/article241274011.html
Saltzer Health|215 E. Hawaii Ave.|Nampa|8 a.m. to 8 p.m.||||
Garrity Campus Clinic|1150 North Sister Catherine Way|Nampa|8am to 8pm||||https://idahonews.com/news/coronavirus/saint-alphonsus-adds-drive-in-covid-19-testing-center-in-nampa
Edward-Elmhurst Health|4201 Winfield Road|Warrenville|M-F 9-3|||in-network patients and staff|https://www.eehealth.org/coronavirus/
Edward-Elmhurst Health|4201 Winfield Road|Warrenville|M-F 9-3|||in-network patients and staff|https://www.eehealth.org/coronavirus/
Illinois National Guard testing facility|6959 Forest Preserve Dr.|Dunning|M-F 9-5||healthcare workers, first responders and people over 65|limit to first 250/day|https://wgntv.com/news/coronavirus/covid-19-drive-thru-testing-sites-expand-as-illinois-cases-surpass-4500/
McLean County Fairgrounds|1106 Interstate Dr|Bloomington|daily 9-7||high risk people have priority|limit to first 250/day|https://week.com/2020/03/28/drive-thru-covid-19-testing-facility-opens-in-mclean-county/
Walmart - Joliet|2424 W Jefferson St|Joliet|10-4 daily|(815) 744-7575|high risk people have priority||https://abc7chicago.com/where-to-find-coronavirus-testing-in-chicago-area/6044390/
Walgreens|695 W Boughton Road|Bolingbrook||(630) 759-3011|high risk people have priority||https://wgntv.com/news/coronavirus/heres-where-you-can-get-a-covid-19-test-in-chicago-area/
University of Chicago Medical Center |5841 S Maryland Ave|Chicago||||appt only|https://www.nbcchicago.com/news/local/drive-thru-coronavirus-testing-available-at-some-area-hospitals-but-with-tight-restrictions/2240669/
Advocate Lutheran General Hospital|1775 Dempster Street|Park Ridge||||appt only|https://www.nbcchicago.com/news/local/drive-thru-coronavirus-testing-available-at-some-area-hospitals-but-with-tight-restrictions/2240669/
Northwestern Memorial Hospital|251 E Huron St|Chicago|||||
Rush Oak Park Hospital|520 S. Maple Ave.|Oak Park||(888) 352-RUSH||screening needed|https://chicago.suntimes.com/coronavirus/2020/3/24/21191831/map-heres-where-to-get-tested-coronavirus-chicago-illinois-covid-19
NorthShore University HealthSystem - Skokie|9600 Gross Point Road|Skokie||847.432.5849|||https://chicago.suntimes.com/coronavirus/2020/3/24/21191831/map-heres-where-to-get-tested-coronavirus-chicago-illinois-covid-19
Rush University Medical Center|1620 W. Harrison St.|Chicago||(888) 352-RUSH||screening needed|https://chicago.suntimes.com/coronavirus/2020/3/24/21191831/map-heres-where-to-get-tested-coronavirus-chicago-illinois-covid-19
One Medical|218 b N. Elizabeth|Chicago||1-888-ONEMED1|Appointment only||https://www.onemedical.com/blog/live-well/covid-19-testing-one-medical
Aria Diagnostics|635 W. 96th St|Indianapolis|||||https://www.wishtv.com/news/medical/north-side-medical-lab-doing-covid-19-testing-complying-with-cdc/
Champions Pavilion at the Indiana State Fairground||Marion County|M 10-6 F 10-6; Sa 10-2 (ends 4/11)||essential workers only; pre-screening and registration||https://fox59.com/news/coronavirus/city-county-agencies-offer-drive-thru-covid-19-testing-for-frontline-marion-county-employees/
Lilly||Indianapolis|||high risk with referral||https://www.fiercebiotech.com/medtech/eli-lilly-offers-drive-thru-covid-19-testing-to-indianapolis-docs-nurses
||New Albany||812-948-4726|||https://www.wdrb.com/news/first-drive-thru-covid--testing-opens-in-new-albany/article_336c4ee6-6aca-11ea-bc01-53d3bbbe20d3.html
Deaconess Midtown Hospital|600 Mary St, 47710|Evansville||812-450-6555|referral - can call the number to be screened||https://44news.wevv.com/deaconess-offers-drive-covid-19-testing/
Franciscan Health||Michigan City|10-6, m-f||referral + appt||https://www.nbcchicago.com/news/local/northwest-indiana-hospital-to-offer-drive-thru-coronavirus-testing/2238420/
Good Shepherd Hospital|450 IL-22, 60010|Barrington|||||
Olathe Northwest High School||Kansas City|||||https://www.kansascity.com/news/local/article241868316.html
Sharon Lee Family Health |300-340 Southwest Blvd.|Kansas City|10-2, m-f; come into the office on weekends if they have symptoms and a doctor's note.|913-396-7070|referral||http://www.swbfhc.org/
Saint Lukeu2019s Health System|4061 Indian Creek Pkwy, 66207|Mission Farms||816-932-5100|appts only; existing patient or employee with referral||https://www.saintlukeskc.org/about/news/saint-lukes-news-three-covid-19-drive-thru-testing-sites-set-qualifying-saint-lukes
GraceMed||Wichita||316-866-2000|call number to get screened, make appt||http://www.kake.com/story/41943677/gracemed-offers-drive-thru-testing-for-coronavirus
UofL|Downtown - corner of East Liberty and South Brook |Louisville|||appts only; existing patients||https://www.wave3.com/2020/03/26/drive-thru-covid-testing-coming-louisville-some-labs-still-backed-up/
Robley Rex VA Medical Center|"800 Zorn Avenue, 40206
"|Louisville|||||https://www.wdrb.com/news/louisville-locations-begin-administering-drive-thru-covid--tests/article_fb20771a-6f60-11ea-b184-4f5a26b93e5f.html
UofK Healthcare Turfland|2195 Harrodsburg Rd, Lexington, KY 40504||||UK employees and general health workers on frontlines||https://www.kentucky.com/news/coronavirus/article241525491.html
Hoskins Medical Center|1120 Reuben St, London, KY 40741|London||(606) 864-7000|||https://www.wymt.com/content/news/London-clinic-starts-drive-up-testing-for-COVID-19-569072721.html
Bluegrass Extended Care|989 Governors Lane|Lexington|9-4||showing symptoms||https://www.wtvq.com/2020/03/24/lexington-clinic-offers-drive-covid-19-testing-wednesday/
University of New Orleans Lakefront Arena Parking Lot|6801 Franklin Avenue|New Orleans|||||https://www.wwltv.com/article/news/health/coronavirus/drive-thru-coronavirus-test-locations-in-southeast-louisiana/289-ea7f65ac-49ac-4516-8f20-ad26184ff08d
New Orleans East Hospital|5620 Read Blvd|New Orleans|m-f, 9-5|504-962-6202|call first to get screened; For symptomatic adults (18 and older) on the hospital campus||https://www.wwltv.com/article/news/health/coronavirus/drive-thru-coronavirus-test-locations-in-southeast-louisiana/289-ea7f65ac-49ac-4516-8f20-ad26184ff08d
Odyssey House|2700 S. Broad Street|New Orleans|m-f, 3p-5p||showing symptoms||https://www.wwltv.com/article/news/health/coronavirus/drive-thru-coronavirus-test-locations-in-southeast-louisiana/289-ea7f65ac-49ac-4516-8f20-ad26184ff08d
Alario Center|2000 Segnette Blvd|Westwego|||||https://www.wwltv.com/article/news/health/coronavirus/drive-thru-coronavirus-test-locations-in-southeast-louisiana/289-ea7f65ac-49ac-4516-8f20-ad26184ff08d
Thibodaux Regional Health System|506 North Acadia Road|Thibodaux|||First responders/medical only||https://www.wwltv.com/article/news/health/coronavirus/drive-thru-coronavirus-test-locations-in-southeast-louisiana/289-ea7f65ac-49ac-4516-8f20-ad26184ff08d
Wla Center For Health Services|2000 Opelousas St.|Lake Victoria|MWTh - 9-4; T 9-6; F 9-1|337-439-9983|call first for screening||
TGMC Medical Arts facility|855 Belanger Street|Houma|||||
Baton Rouge Generalu2019s Mid-City Campus|3600 Florida Blvd|Baton Rouge|1-3, m-f||referral from PCP||https://www.wrkf.org/post/louisianas-first-drive-thru-covid-19-testing-clinic-opens-baton-rouge
Suffolk Downs||Boston|||first responders only||https://www.ebnhc.org/en/newspress/press-releases/east-boston-neighborhood-health-center-partners-with-city-of-boston-and-boston-public-health-commission-on-covid-19-testing-for-first-responders.html
Crown Street parking lot|33 Tower St.|Somerville|M-Sun 9-3|||Current Cambridge Health Alliance patients only|https://www.challiance.org/about/newsroom/cambridge_health_alliance_to_provide_covid19_testi_1178
St. Vincentu2019s Hospital |123 Summer St|Worcester|||||https://www.masslive.com/coronavirus/2020/03/coronavirus-testing-locations-drive-thru-testing-has-begun-in-massachusetts-but-many-require-appointments-prescription-from-doctor.html
UMass Memorial Medical Center|119 Belmont St|Worcester|||||https://www.masslive.com/coronavirus/2020/03/coronavirus-umass-memorial-medical-center-in-worcester-to-pilot-a-drive-up-covid-19-testing-service.html
Brigham and Womenu2019s Hospital - ambulance bay|75 Francis St|Boston|||||
Suffolk Downs Race Track |525 William F McClellan Hwy|Boston|||first responders only||https://patch.com/massachusetts/boston/boston-opens-first-coronavirus-testing-site-suffolk-downs
Sturdy Memorial Urgent|266 Washington St|Attleboro||||Sturdy Memorial patients, appointment only|https://patch.com/massachusetts/attleboro/coronavirus-drive-thru-testing-center-opens-south-attleboro
CVS|720 Boston Turnpike |Shrewsbury|daily 8-8|401-374-6777 ||appointment only|https://fcam.org/CivicAlerts.aspx?AID=1415
One Medical|199 Boylston St|Chestnut Hill||1-888-ONEMED1|appt only||https://www.onemedical.com/blog/live-well/covid-19-testing-one-medical
CVS Health |32 Reiss Ave|Lowell|||pre-register here - https://www.cvs.com/minuteclinic/covid-assessment?WT.tsrc=affiliate&cjevent=60a9e61f7a9d11ea80b400250a1c0e0e&CID=AFF:2617611:8380970:12897382||https://www.wcvb.com/article/former-nurse-whos-now-a-bakery-owner-aims-to-feed-frontline-healthcare-workers/32090455
Harvard Pilgrim Health Care|1600 Colony Drive|Quincy|9-4 daily|617-303-6400|call first to be pre-screened||https://whdh.com/news/drive-thru-coronavirus-testing-site-opening-in-quincy/
AllCare|9396 Baltimore Natl Pike|Ellicott City|M-F 6p-7p, S-S 12p-1p||telemedicine visit first||https://allcarefamilymed.com/coronavirus
vehicle emissions site|721 E Ordnance Rd, Curtis Bay, MD 21226|Glen Burnie|||people with symptoms who are either a health-care worker, a first-responder, over 65 years old, live in group homes or are deemed u201cmedically unstableu201d by their doctor.||https://www.washingtonpost.com/local/getting-tested-for-coronavirus-in-virginia-maryland-dc/2020/03/26/5e19f608-6de9-11ea-a3ec-70d7479d83f0_story.html
vehicle emissions site|28 Henry Ford Cir #2787, Waldorf, MD 20602|Waldorf |||people with symptoms who are either a health-care worker, a first-responder, over 65 years old, live in group homes or are deemed u201cmedically unstableu201d by their doctor.||https://www.washingtonpost.com/local/getting-tested-for-coronavirus-in-virginia-maryland-dc/2020/03/26/5e19f608-6de9-11ea-a3ec-70d7479d83f0_story.html
vehicle emissions site|1631 Robin Cir #3068, Forest Hill, MD 21050|Bel Air|||people with symptoms who are either a health-care worker, a first-responder, over 65 years old, live in group homes or are deemed u201cmedically unstableu201d by their doctor.||https://www.washingtonpost.com/local/getting-tested-for-coronavirus-in-virginia-maryland-dc/2020/03/26/5e19f608-6de9-11ea-a3ec-70d7479d83f0_story.html
FedEx Field|1600 Fedex Way, Landover, MD 20785|Landover||301-883-6627|appts only; ||
Chesapeake ERgent Care|1071 MD-3 #101,|Gambrills|||||
Doctors Community Hospital|8118 Good Luck Rd|Lanham|||||
Anne Arundel Medical Center|2001 Medical Pkwy|Annapolis|||||
Anthem Blue Cross|2 Gannett Drive|Portland|8-8 daily|(207) 358-7400|call first to be pre-screened||https://www.pressherald.com/2020/04/01/new-drive-through-test-site-for-covid-19-to-open-in-south-portland/
Northern Light Blue Hill Hospital|57 Water St, Blue Hill, 04614|Blue Hill||844-489-1822|call ahead to be screened||http://castinepatriot.com/news/2020/mar/20/drive-up-testing-for-covid-19-in-stonington-castin/#.XoIv9NNKjUI
Bass Park|Bass Park Blvd, Bangor, ME 04401|Bangor|9-3 m-f||pre-screen by provider||https://www.newscentermaine.com/article/news/health/coronavirus/drive-up-covid-19-testing-site-to-open-in-bangor/97-1f941345-61bd-4ee6-9c61-4419b64ff180
Mercy Hospital's Fore River campus|175 Fore River Pkwy floor 1, Portland, ME 04102|Portland||844-489-1822|call ahead to be screened||
Inland Hospital|200 Kennedy Memorial Dr, Waterville, ME 04901|Waterville|||pre-screen by provider + calling ahead||
Maine General Medical Center||Ellsworth|||symptoms + calling ahead||
Maine General Medical Center|35 Medical Center Pkwy, Augusta, ME 04330|Augusta|||symptoms + calling ahead||
Spectrum Health||Grand Rapids||616-391-2380|||https://www.michiganradio.org/post/drive-thru-coronavirus-test-sites-pop-michigan-they-cant-test-everyone
Spectrum Health|8501 Meadow Creek Dr, Rockford, MI 49341|Rockford||616-391-2380|||https://www.michiganradio.org/post/drive-thru-coronavirus-test-sites-pop-michigan-they-cant-test-everyone
Henry Ford Allegiance Hospital|205 N East Ave|Jackson||800-592-4784|symptoms or having been exposed to covid/recently traveled||https://www.crainsdetroit.com/coronavirus/southeast-michigan-hospitals-begin-drive-through-coronavirus-testing
Beaumont Health|3601 W 13 Mile Rd, Royal Oak, MI 48073|Royal Oak||800-592-4784|pre-screening||https://www.crainsdetroit.com/coronavirus/southeast-michigan-hospitals-begin-drive-through-coronavirus-testing
Beaumont Health|750 Stephenson Hwy, Troy, MI 48083|Troy||800-592-4784|pre-screening||https://www.crainsdetroit.com/coronavirus/southeast-michigan-hospitals-begin-drive-through-coronavirus-testing
Beaumont Health|18101 Oakwood Blvd, Dearborn, MI 48124|Dearborne||800-592-4784|pre-screening||https://www.crainsdetroit.com/coronavirus/southeast-michigan-hospitals-begin-drive-through-coronavirus-testing
West Ann Arbor Health Center|380 Parkland Plaza, Ann Arbor, MI 48103|Ann Arbor||734-763-6336|existing patients/employees - referral - call ahead for phone screen|existing pat|https://www.mlive.com/news/ann-arbor/2020/03/michigan-medicine-begins-offering-curbside-covid-19-screenings.html
Canton Health Center|1051 N Canton Center Rd, Canton, MI 48187|Ann Arbor||734-763-6336|existing patients/employees - referral - call ahead for phone screen||https://www.uofmhealth.org/coronavirus/appt-locations-update-covid-19
Brighton Health Center|8001 Challis Rd, Brighton, MI 48116|Ann Arbor||734-763-6336|existing patients/employees - referral - call ahead for phone screen||https://www.mlive.com/news/ann-arbor/2020/03/michigan-medicine-begins-offering-curbside-covid-19-screenings.html
Eastern Michigan University|900 Oakwood St, Ypsilanti, MI 48197|Ann Arbor|||||https://www.mlive.com/news/ann-arbor/2020/04/eastern-michigan-university-graduate-nursing-students-put-in-work-at-coronavirus-drive-through-test-sites.html
State Fairgrounds|Off Woodward Ave. on W. State Fair Road|Detroit|7 a.m.-6 p.m.|313-230-0505|||
Beaumont Hospitals|8 locations|Detroit||800-592-4784|||
Mayo Family Clinic NW|4111 US-52 North|Rochester||507-538-8555|phone screen before arrival||https://www.duluthnewstribune.com/business/healthcare/5010228-Mayo-Clinic-Labs-ramp-up-for-round-the-clock-COVID-19-testing
Nicole Bryant||Kansas City||8163301172|||
Hillsboro Community Civil Club Jefferson County Fairgrounds|10349 Business 21|Hillsboro||314-251-0500|||https://www.ksdk.com/article/news/health/coronavirus/mercy-covid-19-drive-thru-testing-site-jefferson-county/63-a17901de-a245-4f59-9c56-45f666eafc85
Mercy Virtual Care Center|15740 S. Outer Forty Road|Chesterfield||314-251-0500|||https://www.ksdk.com/article/news/health/coronavirus/mercy-covid-19-drive-thru-testing-site-jefferson-county/63-a17901de-a245-4f59-9c56-45f666eafc85
Washington Fairgrounds|6 Fairgrounds Road|Washington||314-251-0500|||https://www.ksdk.com/article/news/health/coronavirus/mercy-covid-19-drive-thru-testing-site-jefferson-county/63-a17901de-a245-4f59-9c56-45f666eafc85
St. Luke's Hospital |parking lot between the Mr. and Mrs. Theodore P. Desloge, Jr. Outpatient Center, Building B and St. Luke's Resource Center|Chesterfield|M-F 8-5|314-966-9107 ||appt only|https://www.stlukes-stl.com/coronavirus/index.html
Former Siteman Cancer Center |4000 N. Illinois Lane|Swansea|daily noon-6|||screening required|https://www.ksdk.com/article/news/health/coronavirus/coronavirus-testing-stl/63-c2482de3-e3ba-431d-a9f2-04ec20b81e13
Carr Square neighborhood|1717 Biddle|St. Louis||314-833-2777 ||appt only|https://www.kmov.com/news/coronavirus-testing-sites-in-st-louis-metro-east/article_9cfe09b2-6e9e-11ea-aa94-ff81cfe55d65.html
SSM Health Good Samaritan Hospital - Mt. Vernon|1 Good Samaritan Way|Mt. Vernon||||appt only|https://www.kmov.com/news/coronavirus-testing-sites-in-st-louis-metro-east/article_9cfe09b2-6e9e-11ea-aa94-ff81cfe55d65.html
SSM Health St. Mary's Hospital - Centralia|400 N Pleasant Ave|Centralia||||appt only|https://www.kmov.com/news/coronavirus-testing-sites-in-st-louis-metro-east/article_9cfe09b2-6e9e-11ea-aa94-ff81cfe55d65.html
University of Missouri softball stadium parking lot|600 E Stadium Blvd|Columbia|daily 7-7|||video assessment required|https://www.muhealth.org/our-stories/how-do-i-get-tested-covid-19
Citizens Memorial Hospital|1125 N. Butterfield Road|Bolivar|M-Sat 10-4|||screening required|https://www.citizensmemorial.com/about/media-resources/news/2020/cmh-to-offer-drive-thru-covid-19-testing-with-doctors-order.html
Parkway Center|5816 Osage Beach Parkway|Osage Beach|573-348-7419|||screening and appointment required|https://www.lakeexpo.com/news/coronavirus/lake-regional-announces-drive-thru-covid--testing-site/article_4fe9976e-7069-11ea-800d-e79d409d1dd7.html
Saint Lukeu2019s Health System|8880 NE 82nd Terrace, 64158|Shoal Creek||816-932-5100|appts only; existing patient or employee with referral||https://www.saintlukeskc.org/about/news/saint-lukes-news-three-covid-19-drive-thru-testing-sites-set-qualifying-saint-lukes
Saint Lukeu2019s Health System||Blue Springs||816-932-5100|appts only; existing patient or employee with referral||https://www.saintlukeskc.org/about/news/saint-lukes-news-three-covid-19-drive-thru-testing-sites-set-qualifying-saint-lukes
Former Sears Auto Center |1051 Bonita Lakes Cir|Meridian||601-474-3775|||https://www.wtok.com/content/news/Meridians-first-COVID-19-testing-site-coming-soon--569230231.html
Methodist Hospital-Olive Branch|4250 Bethel Road|Olive Branch||662 932-9000||call ahead|https://www.facebook.com/desotocountyemergencyservices/posts/2978277355563697
Baptist Memorial Hospital u2013 DeSoto|7601 Southcrest Parkway|Southaven||662 772-4000||call ahead|https://www.facebook.com/desotocountyemergencyservices/posts/2978277355563697
Cloverleaf Medical Plaza|5909 US Highway 49|Hattiesburg||||appt only|https://www.hattiesburgclinic.com/curbsidecovid/
Mississippi State Fairground |1207 Mississippi St|Jackson|daily 9-5|601-496-7200||screening required, 128 a day|https://www.jacksonfreepress.com/news/2020/mar/20/more-covid-19-testing-sites-public-and-private-ava/
The University of Mississipi Medical Center testing sites|Varies u2013 1-day only sites||1 day only|601-496-7200|||https://umc.edu/CoronaVirus/COVID-19-Testing/Home.html
Med Plus Urgent Care|407 Interchange Dr|Fulton|M-F 7-7, Sat 8-7, Sun 12-7|662-269-8000|||https://www.djournal.com/news/drive-thru-covid--testing-available-in-tupelo-fulton/article_9e90d89f-df00-53a4-85e5-4c65deac3a24.html
Med Plus Urgent Care|874 Barnes Crossing Rd|Tupelo|M-F 7-7, Sat 8-7, Sun 12-7|662-841-0002|||https://www.djournal.com/news/drive-thru-covid--testing-available-in-tupelo-fulton/article_9e90d89f-df00-53a4-85e5-4c65deac3a24.html
Singing River Health System Ocean Springs Clinic|3109 Bienville Boulevard|Ocean Springs||228-809-5044|||https://singingriverhealthsystem.com/coronavirus/
Singing River Health System Pascagoula Clinic|2819 Denny Ave|Pascagoula||228-809-5044|||https://singingriverhealthsystem.com/coronavirus/
Singing River Health System Hurley Clinic|7001 MS-614|Hurley||228-809-5044|||https://singingriverhealthsystem.com/coronavirus/
Singing River Health System Vancleave Clinic|11700 MS-57|Vancleave||228-809-5044|||https://singingriverhealthsystem.com/coronavirus/
Singing River Health System Woolmarket Clinic|13034 Shrineru2019s Boulevard Suite B|Biloxi||228-809-5044|||https://singingriverhealthsystem.com/coronavirus/
Memorial Primary Care Cedar Lake|1756 Popps Ferry Rd.|Biloxi|M-F 8-5, S-S 9-3|228-867-5000|||http://www.gulfportmemorial.com/
Memorial Stone County Medical Center|1440 E. Central Ave.|Wiggins|M-F 8-5, S-S 9-4|228-867-5001|||http://www.gulfportmemorial.com/
Memorial Magnolia Grove Walk-In Clinic|4333 15th Street|Gulfport|M-F 8-5, S-S 9-5|228-867-5002|||http://www.gulfportmemorial.com/
Memorial Long Beach Walk-In|5120 Beatline Rd., Ste. B|Long Beach|M-F 8-5, S-S 9-6|228-867-5003|||http://www.gulfportmemorial.com/
Memorial Surgery Center of Ocean Springs|3882 Bienville Blvd|Ocean Springs|M-F 8-5, S-S 9-7|228-867-5004|||http://www.gulfportmemorial.com/
Memorial Drinkwater Internal Medicine Walk-In Clinic|300 Drinkwater Drive|Bay St. Louis|M-F 8-5, S-S 9-8|228-867-5005|||http://www.gulfportmemorial.com/
Memorial Hancock Family Practice|4433 Leisure Time Drive|Diamondhead|M-F 8-5, S-S 9-9|228-867-5006|||http://www.gulfportmemorial.com/
Center for Asbestos Related Disease|214 E 3rd St|Libby|daily 12-3|406-293-6295||referral or screening required|https://thewesternnews.com/news/2020/mar/27/first-covid-19-case-confirmed-in-lincoln-12/
Bozeman Health Belgrade Clinic parking lot|206 Alaska Frontage Rd|Belgrade|M-F 9-4 Sat 9-1||||https://www.kulr8.com/regional/bozeman-health-to-offer-covid--drive-up-test-sites/article_873cba0a-dc1e-55be-9571-a88d28775101.html
Bozeman Health Deaconess Hospital parking lot G|915 Highland Blvd|Bozeman|M-F 9-4||||https://www.kulr8.com/regional/bozeman-health-to-offer-covid--drive-up-test-sites/article_873cba0a-dc1e-55be-9571-a88d28775101.html
Bozeman Health Outpatient Services parking lot|120 N 19th Ave D|Bozeman|M-F 9-4||||https://www.kulr8.com/regional/bozeman-health-to-offer-covid--drive-up-test-sites/article_873cba0a-dc1e-55be-9571-a88d28775101.html
Big Sky Medical Center, Emergency Department Ambulance Bay|334 Town Center Ave|Big Sky|M-F 9-4 Sat 9-1||||https://www.kulr8.com/regional/bozeman-health-to-offer-covid--drive-up-test-sites/article_873cba0a-dc1e-55be-9571-a88d28775101.html
St. Peteru2019s Health Medical Group Building|2550 Broadway|Helena|daily 10-5|406-457-4180||referral from physician or health dept required|https://www.sphealth.org/what-if-you-think-you-have-covid-19
Cumberland County Department of Public Health|1235 Ramsey St|Fayetteville|9-12:30AM|910-433-3638||appt only|https://www.fayobserver.com/news/20200324/residents-show-up-for-drive-thru-covid-19-testing-in-fayetteville
Tryon Medical|630 Matthews Township Parkway|Matthews|M-F 8-5|||screening / virtual visit required|https://www.tryonmed.com/resource/what-charlotte-should-know-about-coronavirus-and-the-flu/
Tryon Medical|900 East Morehead Street |Charlotte|M-F 8-5|||screening / virtual visit required|https://www.tryonmed.com/resource/what-charlotte-should-know-about-coronavirus-and-the-flu/
zMAX Dragway at Charlotte Motor Speedway|6570 Bruton Smith Blvd|Concord||704-468-8888||screening required, appt only|https://atriumhealth.org/about-us/coronavirus
Blue Ridge Community College|80 W Campus Dr|Flat Rock|daily 9-7|828-694-8048||screening required|https://www.pardeehospital.org/about-us/news-media/2020-news-releases/pardee-unc-health-and-henderson-county-department-of-public-heal/
Fort Bragg fairgrounds|Honeycutt Road and Bragg Boulevard|Fort Bragg|daily 9-2:30||||https://www.fayobserver.com/news/20200327/fort-bragg-to-open-drive-thru-coronavirus-testing-site-saturday
Trinity Medical Arts Clinic|400 E Burdick Expy|Minot||701-857-5000||appt required|https://www.kfyrtv.com/content/news/Health-officials-discuss-COVID-19-testing-protocols-in-Minot--568873751.html
Lakeview Health Clinic|2050 36th Ave SW, Suite 201 |Minot||701-852-8502||screening required|https://www.facebook.com/lakeviewhealthclinic/posts/547715865864828
Bryan Health - Lifepoint Clinic||Lincoln|every day - four hours||doctoru2019s referral||https://www.kwit.org/post/iowa-covid-19-cases-now-179-woodbury-county-begin-drive-thru-testing
Crossroads Urgent Care clinic|72nd and Dodge|Omaha||402-715-5272|symptomatic; appt only - call ahead||https://www.ketv.com/article/appointment-only-drive-up-testing-for-covid-19-available-at-omaha-clinic/31927198
||Omaha|||visit covidomaha.com and fill out questionnaire; must have PCP referral before coming in-person||https://www.usnews.com/news/best-states/nebraska/articles/2020-03-28/covid-19-drive-thru-testing-clinic-opens-in-omaha
Bryan Health - Lifepoint Clinic|7501 S 27th St.|Lincoln|2p-6p every day|402-481-0500|doctoru2019s referral||https://www.ketv.com/article/where-you-can-get-tested-for-covid-19-in-nebraska/31946796
Pease International Tradeport|100 New Hampshire Ave|Portsmouth|||pre-screening + referral||https://www.wmur.com/article/drive-thru-covid-19-testing-center-opens-in-portsmouth/32020600#
National Guard Armory|1059 Canal St, Manchester, NH 03101|Manchester|||doctoru2019s referral||https://www.unionleader.com/news/health/coronavirus/mobile-test-site-open-besieged-in-manchester/article_6c059ee3-1f70-55b5-89a9-77025065d5be.html
Keady Family Practic|214 Washington Street|Claremont||603-863-7777|||https://www.wmur.com/article/team-of-medical-volunteers-performs-mobile-testing-for-covid-19/31266075
William Paterson College|300 Pompton Rd|Wayne|9-12||||https://www.northjersey.com/story/news/coronavirus/2020/03/25/nj-coronavirus-william-paterson-testing-center-opens-passaic-county/2908610001/
Bergen Community College|400 Paramus Rd|Paramus|8-4|(800)-222-1222 |referral||https://covid19.nj.gov/locations?query=Testing+Centers+in+NJ&tabOrder=all%2CpromotedContent%2Clocations%2Cresources%2CNJfaqs%2CjobPostings%2CAASfaqs%2Ccoronavirus
Cooper's Poynt Park|801 Delaware Avenue |Camden|M-F 12-4, S-S 12-4||xf||https://www.njpen.com/camden-county-to-open-covid-19-test-site-april-1-at-coopers-poynt-park/
PNC Bank Arts Center|116 Garden State Pkwy|Holmdel|8 onwards||||https://covid19.nj.gov/locations?query=Testing+Centers+in+NJ&tabOrder=all%2CpromotedContent%2Clocations%2Cresources%2CNJfaqs%2CjobPostings%2CAASfaqs%2Ccoronavirus
Kean University|1000 Morris Ave|Union|||||https://covid19.nj.gov/locations?query=Testing+Centers+in+NJ&tabOrder=all%2CpromotedContent%2Clocations%2Cresources%2CNJfaqs%2CjobPostings%2CAASfaqs%2Ccoronavirus
Hudson Regional Hospital |55 Meadowlands Pkwy,|Secaucus||201-388-1097 ||appointment only|https://www.hudsonregionalhospital.com/2020/03/hudson-regional-hospital-begins-coronavirus-testing/
Riverside Medical Group - Secaucus|714 10th St|Secaucus|M-F 9-5, Sat 10-1|||Riverside Medical Group patients, appt only|https://njbiz.com/drive-thru-coronavirus-test-available-secaucus/
Riverside Medical Group - Medford|69 S Main St|Medford|M-F 9-5, Sat 10-2|||Riverside Medical Group patients, appt only|https://www.riversidemedgroup.com/riverside-prepared-for-covid-19/
Riverside Medical Group - Hoboken|1111 Hudson|Hoboken|M-F 9-5, Sat 10-3|||Riverside Medical Group patients, appt only|https://www.riversidemedgroup.com/riverside-prepared-for-covid-19/
Cooper University Health Care |210 Brace Rd|Cherry Hill ||800.826.6737||Cooper patients, appt only|https://www.cooperhealth.org/patients-visitors/coronavirus-covid-19-information/covid-19-testing
Morristown Medical Center|100 Madison Ave|Morristown||||Atlantic Health System patients, appt only|https://www.nj.com/coronavirus/2020/03/atlantic-health-system-opens-testing-site-in-morris-county.html
Old DPW complex|575 NJ-440|Jersey City|daily 9-5|201-547-5535 ||appt only|https://abc7ny.com/coronavirus-new-jersey-nj-testing-news/6053011/
Weequahic Park|Elizabeth Ave & Meeker Ave|Newark|varies|973-324-9950||100 test a day, appt only|https://www.nj.com/coronavirus/2020/03/appointment-only-coronavirus-testing-site-coming-to-essex-county.html
CompleteCare |Undisclosed location|Vineland||(856) 451-4700||patients of the CompleteCare Health Network, appt only|https://www.thedailyjournal.com/story/news/2020/03/30/nj-coronavirus-testing-drive-through-site-cumberland-county-vineland/5091853002/
County College of Morris, Parking Lot 1|Dover Chester Road|Randolph|9 onwards|||appointment only|https://covid19.nj.gov/search.html?query=Testing+Centers+in+NJ
Bergen New Bridge Medical Center|230 East Ridgewood Avenue|Paramus|8 onwards||first responders only|appointment only|https://www.newbridgehealth.org/bergen-covid19-screening/
Bergen Community College|400 Paramus Rd|Paramus|8-4|(800)-222-1222 |||https://covid19.nj.gov/locations?query=Testing+Centers+in+NJ&tabOrder=all%2CpromotedContent%2Clocations%2Cresources%2CNJfaqs%2CjobPostings%2CAASfaqs%2Ccoronavirus
PNC Bank Arts Center|116 Garden State Pkwy|Holmdel|8 onwards||||https://covid19.nj.gov/locations?query=Testing+Centers+in+NJ&tabOrder=all%2CpromotedContent%2Clocations%2Cresources%2CNJfaqs%2CjobPostings%2CAASfaqs%2Ccoronavirus
Burlington County Emergency Services Training Center|53 Academy Dr|Westampton|daily 1-5|609u2010726u20107097||appt only|https://www.ibx.com/htdocs/custom/covid19/pdfs/covid-19-testing-locations-ibx.pdf
Kean University|1000 Morris Ave|Union||||appointment only|https://covid19.nj.gov/locations?query=Testing+Centers+in+NJ&tabOrder=all%2CpromotedContent%2Clocations%2Cresources%2CNJfaqs%2CjobPostings%2CAASfaqs%2Ccoronavirus
Veterans Park|669 Avenue A|Bayonne|10-3:30||screening by CarePoint doctors||https://hudsonreporter.com/2020/03/25/bayonne-medical-center-starts-drive-thru-testing-for-covid-19-by-referral/
Alta Vista Regional|104 Legion Drive|Las Vegas|M-F 2-3|505-426-3615|referral||https://www.santafenewmexican.com/news/coronavirus/test-sites-ramping-up-around-new-mexico/article_09f6e0fa-6ded-11ea-a4d2-634e1c518b71.html
Presbyterian Espau00f1ola Hospital|1010 Spruce St|Espau00f1ola||505-753-7111|phone screen||https://www.santafenewmexican.com/news/coronavirus/test-sites-ramping-up-around-new-mexico/article_09f6e0fa-6ded-11ea-a4d2-634e1c518b71.html
Union County General Hospital|300 Wilson St|Clayton||575-374-2585|pre-screen - call||https://www.santafenewmexican.com/news/coronavirus/test-sites-ramping-up-around-new-mexico/article_09f6e0fa-6ded-11ea-a4d2-634e1c518b71.html
Presbyterian |Balloon Fiesta Park|Albuquerque|7-7|505-753-7111|visit https://pres.today/covid to get screened first||http://cvproviderportal.rtsclients.com/directory.html
PresNow|4515 Coors Blvd. NW|Albuquerque|9-6 every day||symptomatic||https://www.kob.com/coronavirus/long-line-forms-as-presbyterian-begins-drive-thru-covid-19-testing/5674723/
Lovelace||Albuquerque|7-7 every day||||https://www.kob.com/coronavirus/long-line-forms-as-presbyterian-begins-drive-thru-covid-19-testing/5674723/
Christus St. Vincent|5501 Herrera Drive|Santa Fe|8-5 M-F||referral||https://www.santafenewmexican.com/news/coronavirus/test-sites-ramping-up-around-new-mexico/article_09f6e0fa-6ded-11ea-a4d2-634e1c518b71.html
Presbyterian Santa Fe Medical Center|4800 Beckner Rd|Santa Fe|11 am until supplies out|(505) 772-1234|||https://www.santafenewmexican.com/news/coronavirus/test-sites-ramping-up-around-new-mexico/article_09f6e0fa-6ded-11ea-a4d2-634e1c518b71.html
Presbyterian - Memorial Medical Cente|2450 S Telshor Blvd|Las Cruces|||||
Nor-Lea General Hospital|126 Tatum Highway|Lovington|10-4|575-396-9090|phone screen||
Optum New Mexico||Albuquerque|||appts only||
San Juan Regional Medical Center|400 W. Maple St.|Farmington||505-516-0938|||https://www.santafenewmexican.com/news/coronavirus/test-sites-ramping-up-around-new-mexico/article_09f6e0fa-6ded-11ea-a4d2-634e1c518b71.html
NMDOH|2669 N Scenic Dr,|Alamogordo|5-5|575-443-7505|call for details||
Craig Convenient Care|4090 W. Craig Road|Las Vegas|M-F 8-5; Sa 10-6|702-877-5199|call for pre-screening||https://www.reviewjournal.com/local/local-las-vegas/las-vegas-urgent-care-stops-drive-through-coronavirus-testing-1986895/
Sahara West Urgent Care|||||Referral from primary doctor|Appt only, About 300 test kits left|https://www.fox5vegas.com/coronavirus/drive-thru-covid--testing-halted-staff-overwhelmed-in-las/article_5aae8078-6a3e-11ea-a597-5b88fd5f3b29.html
Flamingo Healthcare Center|5580 W. Flamingo Road|Las Vegas|M-F 8-5|702-877-5199|call for pre-screening||https://www.reviewjournal.com/local/local-las-vegas/las-vegas-urgent-care-stops-drive-through-coronavirus-testing-1986895/
Lake Mead Convenient Care|310 W. Lake Mead Parkway|Henderson|M-F 8-5|702-877-5199|call for pre-screening||https://www.reviewjournal.com/local/local-las-vegas/las-vegas-urgent-care-stops-drive-through-coronavirus-testing-1986895/
UNLV Medicine|1125 Shadow Lane|Las Vegas|8:30am - 3:00pm M-F|702-583-4408||Appt only|
Serenity Mental Health|755 N. Roop St Ste. 101|Carson City|||Fill out questionaire to COVID19@serenitymentalhealth.org|1 test per car|https://www.serenitymentalhealth.org/
Aqueduct Racetrack|110-00 Rockaway Blvd|Queens||883-SOMOSNY|||https://qns.com/story/2020/03/23/with-live-racing-suspended-aqueduct-racetracks-parking-lot-hosts-coronavirus-testing-site/
South Beach Psychiatric Center parking lot|777 Seaview Ave|Staten Island|11-7|888-364-3065||Appt only|https://www.silive.com/news/2020/03/1st-in-nyc-drive-through-testing-for-coronavirus-in-ocean-breeze-politician-says.html
Anthony Wayne Recreation Area|Palisades Interstate Pkwy|Bear Mountain|7-7|888-364-3065||Appt only|https://www.lohud.com/story/news/health/2020/03/18/coronavirus-drive-thru-testing-center-opens-rockland/2864688001/
Central Crossing Shopping Center|175 NY-59|Spring Valley||845-271-6300 ||Appt only|http://westchester.news12.com/story/41908571/rockland-county-to-open-drivethrough-testing-center
Jones Beach at Teddy Roosevelt||Wantagh|8-8|||appt only|https://www.newsday.com/news/health/virus-test-sites-1.43250642
Glen Island Park|Weyman Ave|New Rochelle||(888) 364-3065|||https://www.nydailynews.com/coronavirus/ny-coronavirus-cuomo-mobile-testing-20200313-x6b6n2shdfgqrjn5qlttv65auu-story.html
Rochester General Hospital|1425 Portland Ave|Rochester||(585) 753-5555|||https://www.democratandchronicle.com/story/news/2020/03/16/coronavirus-first-local-testing-includes-drive-through-site/5059051002/
Stony Brook Universityu2019s South P Lot ||Stony Brook|m-sun 7-7|888-364-3065||appt only|https://news.stonybrook.edu/sb_medicine/new-york-state-partners-with-sbu-to-start-coronavirus-testing-at-university/
ProHEALTH Urgent Care of Little Neck|254-61 Nassau Blvd |Queens|M-F 8-8, S-S 8-5|516-874-0411||ProHEALTH patients only, by appt|https://longislandweekly.com/prohealth-launches-drive-thru-testing-for-coronavirus/
ProHEALTH Urgent Care of Jericho |555 N Broadway Jericho|Jericho|M-F 8-8, S-S 8-6|516-874-0411||ProHEALTH patients only, by appt|https://longislandweekly.com/prohealth-launches-drive-thru-testing-for-coronavirus/
Intermodal Center at Dutchess Stadium|1500 NY-9D|Wappingers Falls|M-Sat 8:30-3:30||||https://patients.healthquest.org/novel-coronavirus-covid-19-update-2/covid-19-collection-site-information/
Tech City |300 Enterprise Drive|Kingston|M-Sat 8:30-3:30||||https://patients.healthquest.org/novel-coronavirus-covid-19-update-2/covid-19-collection-site-information/
Silver Star Urgent Care|625 Rockaway Turnpike|Lawrence||(516) 871-3003|||https://silverstarurgentcare.com
UH Landerbrook Health Center|5850 Landerbook Dr||||||
Cleveland Clinic - Main campus|9500 Euclid Ave|Cleveland|||||
Premier Health|1801 Edwin C. Moses Blvd.|Dayton|10 a.m. to 6 p.m.||||https://www.premierhealth.com/news-and-events/news/2020/03/16/premier-health-university-of-dayton-to-set-up-covid-19-collection-site
UC Health Center|3120 Burnet Ave|Cincinnati||513-418-4787||Appt only|https://www.fox19.com/2020/03/17/mobile-covid-testing-sites-open-cincinnati-dayton/
UH Landerbrook Health Center|5850 Landerbrook Dr.|Mayfield Heights|||||https://www.uhhospitals.org/locations/uh-landerbrook-health-center
Kay County Health Department|433 Fairview Ave|Ponca City||580-762-1641||Appt only|https://www.koco.com/article/what-you-need-to-know-about-drive-thru-coronavirus-testing-sites-in-oklahoma/31980168#
Pittsburg County Health Department|1400 E College Ave|McAlester||918-423-1267||Appt only|https://www.koco.com/article/what-you-need-to-know-about-drive-thru-coronavirus-testing-sites-in-oklahoma/31980168#
Tulsa Health Department||||918-582-9355||Appt only|https://www.koco.com/article/what-you-need-to-know-about-drive-thru-coronavirus-testing-sites-in-oklahoma/31980168#
Samaritan Lebanon Community Hospital|525 N Santiam Hwy SE|Lebanon|||||
Oregon Health and Science University||Hillsboro|||OHSU staff and patients only||
Virginia Garcia Memorial|226 SE 8th Ave|Hillsboro|MWF, appt only||Virgina Garcia patients only||
Providence Medical Center|4805 NE Glisan St|Portland|||||
One Medical|3138 N Vancouver Ave|Portland||1-888-ONEMED1|appt only||https://www.onemedical.com/blog/live-well/covid-19-testing-one-medical
Abington Memorial Hospital|1200 Old York Rd|Abington|||||
Doylestown Health|595 W. State Street|Doylestown|M-F 8-noon|(267-885-1722)||appt required|https://www.doylestownhealth.org/about/news/health-news-and-blog/information-on-coronavirus-covid-19
Abington Memorial Hospital - Rosenfeld Cancer Center Parking Lot|1200 Old York Road|Abington|daily 8-4:30|215u2010344u20108422||appt required|https://www.ibx.com/htdocs/custom/covid19/pdfs/covid-19-testing-locations-ibx.pdf
Jefferson Center City|945 Sansom Street|Philadelphia|M-F 8-5|215u2010327u2010 7837||appt required|https://www.ibx.com/htdocs/custom/covid19/pdfs/covid-19-testing-locations-ibx.pdf
Jefferson Northeast - Jefferson Urgent Care Parking Lot |2966 Street Road|Bensalem|daily 8-4:30|215u2010710u20103704||appt required|https://www.ibx.com/htdocs/custom/covid19/pdfs/covid-19-testing-locations-ibx.pdf
Main Line Health - Newtown Square|3855 West Chester Pike|Newtown Square|daily 9-4|866.225.5654||Main Line Health System or Nemours patients only|https://www.ibx.com/htdocs/custom/covid19/pdfs/covid-19-testing-locations-ibx.pdf
Main Line Health - Radnor|240 North Radnor Chester Road|Radnor|daily 9-4|866.225.5654||Main Line Health System or Nemours patients only|https://www.inquirer.com/health/coronavirus/coronavirus-penn-medicine-drive-through-testing-confusion-20200316.html
Mercy Catholic Medical Center (MCMC) u2013 Mercy Philadelphia|501 S. 54th Street|Philadelphia|M-F 11-3|||screening required|https://www.ibx.com/htdocs/custom/covid19/pdfs/covid-19-testing-locations-ibx.pdf
Penn Medicine |201 King of Prussia Road - north parking lot|Radnor|M-F 10-5|267u2010414u20102303||appt only|https://www.ibx.com/htdocs/custom/covid19/pdfs/covid-19-testing-locations-ibx.pdf
Penn Medicine|4122 Market Street Parking Lot|West Philadelphia|M-F 100-5|267u2010414u20102303||appt only|https://www.ibx.com/htdocs/custom/covid19/pdfs/covid-19-testing-locations-ibx.pdf
Citizens Bank Park|1 Citizens Bank Way|Philadelphia|daily 2-6|215-685-1803|high risk||https://6abc.com/philadelphia-coronavirus-covid-19-sports-complex-testing/6031085/
Crozer-Chester Medical Center|1 Medical Center Blvd.|Upland||610-447-6730||Crozer-Keystone patients only|https://www.inquirer.com/health/coronavirus/coronavirus-testing-sites-philadelphia-main-line-south-jersey-insurance-20200324.html
PM Pediatrics Urgent Care|101 E. Swedesford Rd|Wayne||516.869.0650|age 0-26||https://pmpediatrics.com/coronavirus-covid-19-frequently-asked-questions/
Genesis Diagnostic|900 Town Center Dr|Langhorne|M-Sat 9-6|||appt only|https://6abc.com/6045920/
Jefferson Bucks Hospital|380 N Oxford Valley Rd|Langhorne|M-F 8-5||||https://6abc.com/6045920/
Jefferson Frankford Hospital|4900 Frankford Ave|Philadelphia|M-F 8-5||||https://6abc.com/6045920/
Jefferson Torresdale Hospital|10800 Knights Rd|Philadelphia|M-F 8-5||||https://6abc.com/6045920/
Pennsylvania College of Health Sciences|850 Greenfield Road|Lancaster|M-F 9-6; S-S 9-2||referral||https://www.lancastergeneralhealth.org/coronavirus/coronavirus-testing-sites
Rhode Island College|600 Mt Pleasant Ave|Providence|daily 9-3|855-840-4774||appt required|https://turnto10.com/news/local/appointment-only-mobile-testing-sites-opening-at-ris-public-colleges
Community College of Rhode Island|400 East Ave, Warwick, RI 02886|Warwick|daily 9-3|855-840-4775||appt required|https://turnto10.com/news/local/appointment-only-mobile-testing-sites-opening-at-ris-public-colleges
University of Rhode Island|45 Upper College Rd|Kingston|daily 9-3|855-840-4776||appt required|https://turnto10.com/news/local/appointment-only-mobile-testing-sites-opening-at-ris-public-colleges
AnMed Health Oglesby Center A|2000 East Greenville St|Anderson|MF 9 a.m. - 3:30 p.m.|||Appointment Only|https://scha.org/news/hospitals-creating-drive-thru-specimen-collection-sites-to-combat-coronavirus/
Beaufort Memorial Medical and Administrative Center|990 Ribaut Rd.|Beaufort|M-F 8 a.m. to 8 p.m. S 8 a.m. to 5 p.m.|||Appointment Only|https://www.islandpacket.com/news/local/article241168611.html
Citadel Mall campus|2070 Sam Rittenberg Blvd, Charleston, SC 29407|Charleston||||Appointment Only|https://scha.org/news/hospitals-creating-drive-thru-specimen-collection-sites-to-combat-coronavirus/
McLeod Health|711 Chesterfield Highway|Cheraw||||Appointment Only|https://scha.org/news/hospitals-creating-drive-thru-specimen-collection-sites-to-combat-coronavirus/
McLeod Health|10 East Hospital St.|Clarendon||||Appointment Only|https://scha.org/news/hospitals-creating-drive-thru-specimen-collection-sites-to-combat-coronavirus/
Prisma Health Richland Hospital|5 Richland Medical Park Dr.|Columbia|9 a.m. to 5 p.m.|||Appointment Only|https://scha.org/news/hospitals-creating-drive-thru-specimen-collection-sites-to-combat-coronavirus/
McLeod Health|301 East Jackson St.|Dillon||||Appointment Only|https://scha.org/news/hospitals-creating-drive-thru-specimen-collection-sites-to-combat-coronavirus/
Doctors Care urgent care|2200 South Irby St.|Florence||||Appointment Only|https://www.wmbfnews.com/2020/03/17/musc-florence-sets-up-drive-thru-covid-testing/
McLeod Regional Medical Center of Pee Dee|555 East Cheves St.|Florence||||Appointment Only|https://www.thestate.com/news/coronavirus/article241460936.html
Prisma Health Greenville Memorial Hospital|701 Grove Rd.|Greenville|9 a.m to 6 p.m.|||Appointment Only|https://www.thestate.com/news/coronavirus/article241460936.html
Greenville County Emergency Management||Greenville|M-F 9-4||first responders/health care providers only||https://www.foxcarolina.com/news/greenville-has-drive-thru-collection-site-for-covid-19-tests-available-to-first-responders-healthcare/article_4db8746a-737a-11ea-b2ff-9b4020afe2a3.html
Self Regional Healthcare|1325 Spring St.|Greenwood||||Appointment Only|https://www.thestate.com/news/coronavirus/article241460936.html
MUSC Health Lancaster Medical Center|1010 Woodland Dr.|Lancaster|||||https://www.thestate.com/news/coronavirus/article241460936.html
McLeod Health Seacoast|4000 Highway 9 East|Little River||||Appointment Only|https://www.thestate.com/news/coronavirus/article241460936.html
McLeod Health|3655 Mitchell St.|Loris||||Appointment Only|https://www.thestate.com/news/coronavirus/article241460936.html
Roper St. Francis Transitions Clinic| 5133 Rivers Ave.|North Charleston|M-F 8:30 a.m. to 5 p.m.|||Appointment Only|https://www.live5news.com/2020/03/16/roper-st-francis-providing-drive-through-service-patients-suspected-having-covid-/
Prisma Health Tuomey Hospital|129 N Washington St.|Sumter|MF 9 a.m. to 5 p.m.||||https://www.foxcarolina.com/coronavirus/prisma-health-offers-drive-thru-covid--testing-for-people/article_bb6e5794-670f-11ea-9a99-1ba4e3dcc875.html
Kershaw County Mental Health Clinic|2611 Liberty Hill Road|Camden|||||https://www.wistv.com/2020/03/20/kershaw-county-leaders-announce-drive-thru-testing-combat-coronavirus-outbreak/
Colonial Health Care,|325 Broad St|Sumter||||No appointment necessary|https://www.thestate.com/news/coronavirus/article241460936.html
Union Medical Center|322 W South St|Union|M-F 9 a.m. to 4 p.m.||||
Cherokee Medical Center|1530 N Limestone St|Gaffney|M-F 9 a.m. to 4 p.m.||||
USC Upstate|305 North Campus Blvd|Spartanburg|M-F 9 a.m. to 4 p.m.||||
Mcleod Health Cheraw|711 Chesterfield Hwy,|Cheraw|||||https://www.mcleodhealth.org/services/care/telehealth/
Monument Health|2116 Jackson Boulevard|Rapid City|7 a.m. to 7 p.m.|1-800-279-1466|flu like symptoms, recently traveled, exposed to someone with a confirmed case|Need referral|https://www.newscenter1.tv/monument-health-adding-drive-through-testing-for-coronavirus/
Sanford Health|N/A|Sioux Falls||||Need referral|https://news.sanfordhealth.org/coronavirus-disease-2019-covid-19/sf-bemidji-mobile-testing/
East Tennessee Medical Group|266 Joule Street|Alcoa|8 a.m. to 5 p.m.||temp over 100.4, cough or shortness of breath||https://www.wvlt.tv/content/news/Coronavirus-drive-thru-testing-available-in-Blount-County-568897061.html
Nissan Stadium|1 Titans Way|Nashville|MWF 9- 3|615-862-7777||need phone screening|https://www.wkrn.com/community/health/coronavirus/covid-19-assessment-centers-open-across-nashville/
Meharry Medical College|1005 Dr DB Todd Jr Blvd|Nashville|MWF 9- 3 |615-862-7777||need phone screening|https://www.tennessean.com/story/news/health/2020/03/27/nashville-and-meharry-coronavirus-testing-centers-open-next-week/2926480001/
K-Mart parking lot|2491 Murfreesboro Pike|Nashville|MWF 9- 3|615-862-7777||need phone screening|https://www.tennessean.com/story/news/health/2020/03/27/nashville-and-meharry-coronavirus-testing-centers-open-next-week/2926480001/
Laboratory Service Center and Physician Services in Cleveland|2650 Executive Park NW, Suite 5|Cleveland|SS 8 a.m. to 6 p.m. MF 8:30 am - 5pm|||$200, free for first responders|https://docs.google.com/forms/d/e/1FAIpQLSd-rjftzLBmCasNorsXdaEPzoavLTf3nYFHkI59_mjae7b8NA/viewform
Tiger Lane|450 Early Maxwell Blvd|Memphis||901-203-5526|text covid to the number||
Zoo Knoxville|3500 Knoxville Zoo Drive|Knoxville|10 a.m. to 5:30 p.m.||||https://www.knoxnews.com/story/news/local/2020/04/03/knoxville-offers-drive-thru-coronavirus-testing-zoo-supply-drive/2941150001/
Neighborhood Medical Center|5917 Belt Line Rd|Dallas|daily|972.726.6464|flu and strep screen||https://www.neighborhoodmedicalcenter.com/
Omni Medical|McDermott Rd|Plano|M-F|972-668-6868|call for screening||omnimedicalcenter.com
Omni Medical|3413 Spectrum Blvd Suite #100|Richardson|M-F|972-668-6868|call for screening||omnimedicalcenter.com
Ellis Davis Field House| 9191 S Polk|Dallas|||||https://www.wfaa.com/article/news/health/coronavirus/dallas-county-begins-drive-thru-testing-for-coronavirus-this-weekend/287-2ea30634-ac39-4d71-8824-7b854c3e0768
|12300 Ford Road Suite 135|Farmers Branch|||||
Neighborhood Medical Center|5917 Belt Line Rd|Dallas|||||https://www.neighborhoodmedicalcenter.com/
AllMedPhysicians|1760 FM 967|Buda|||www.AllMedPhysicians.com Sign in to Patient Portal to request an appointment for test||
||El Paso|7-5 m-sa|915-212-0783|symptomatic and 65+ or high risk |Photo ID|https://www.ktsm.com/coronavirus-2/el-paso-opens-covid-19-drive-thru-screening-for-more-people/
Clinicas Mi Doctor - Lewisville|701 S Stemmons Fwy|Lewisville||1-888-776-5252|||
MD Kids Pediatrics - Harrisburg|6812 Harrisburg Blvd|Houston||1-888-776-5252|||
Clinicas Mi Doctor|10058 Long Point Rd|Houston||1-888-776-5252|||
American Airlines Center|2500 Victory Blvd|Dallas|8-8||senior age with high temp||https://www.wfaa.com/article/news/health/coronavirus/dallas-county-begins-drive-thru-testing-for-coronavirus-this-weekend/287-2ea30634-ac39-4d71-8824-7b854c3e0768
Ellis Davis Field House|9191 S. Polk S|Dallas|||||https://www.dshs.state.tx.us/coronavirus/testing.aspx#dallas
Clinicas Mi Doctor - Seminary location|4200 South Fwy. #106|Forth Worth||1-888-776-5252|||
MD Kids Pediatrics - West Plano|7800 Preston Rd. #300|Plano||1-888-776-5252|||
MD Family Clinic - Bruton|9709 Bruton Rd|Dallas||1-888-776-5252|||
MD Family Clinic - Irving Heights|1111 S Irving Heights Dr|Irving||1-888-776-5252|||
Austin / Travis County Public Health||Austin||||High Priority Cases|
MD Family Clinic - Marsh|9991 Marsh Ln. #100|Dallas||1-888-776-5252|||
MD Kids Pediatrics - Saner|3201 W. Saner Ave.|Dallas||1-888-776-5252|||
Parkland Health and Hospital System|5200 Harry Hines Blvd|Dallas|||||
Baylor Scott & White|425 University Blvd|Round Rock||||Appt only|https://www.bswhealth.com/Pages/coronavirus-information.aspx
Baylor Scott & White|5251 W. US Hwy 290|Austin||||Appt only|https://www.bswhealth.com/Pages/coronavirus-information.aspx
Toney Berger Activity Center|3200 Jones Rd|Austin|8 a.m. to 8 p.m.|||Appt only|https://myremedy.com/remedy-opens-drive-through-testing-open-air-clinic-in-south-austin/
Home Depot |7211 N. IH35 Frontage Road|Austin|||||
My Family Doctor Clinic|6430 Hillcroft Ave|Houston|9 a.m. to 4 p.m.||||https://www.covid19drivethru.com/
Butler Stadium|13755 S. Main St.|Houston||832-393-4220|||
United Memorial Medical Center|510 West Tidwell|Houston|8:00 AM - 8:00 PM||||
Austin / Travis County Public Health||Austin||||High Priority Cases|
Christus Spohn Memorial|2606 Hospital Blvd|Corpus Christi||361-826-7200|appt - call for screening||https://www.caller.com/story/news/local/2020/03/19/drive-thru-coronavirus-testing-starts-corpus-christi/2872017001/#
Texas Tech University Health Sciences Center|3401 SE 10th Ave|Amarillo|9 a.m. to 3 p.m., M - F|806-378-6300|||https://www.amarillo.gov/Home/Components/News/News/902/16
UMC Health System|602 Indiana Avenue|Lubbock||806-761-0111|||
Harmony Clinics|4412 Kell Blvd|Wichita Falls||940-233-1822|||https://www.harmonywf.com/
Angelo State University, Foster Field|2601 W Ave N|San Angelo|M - F 9 am to 5 pm|325-481-2050|||https://www.shannonhealth.com/education-and-resources/covid-19-information/
Baylor Scott & White Medical Center|2401 S 31st St.|Temple|||||https://www.bswhealth.com/Pages/coronavirus-information.aspx
Neighborhood Medical Center Clinic|5917 Belt Line Rd.|Dallas||972-275-6910|||https://www.neighborhoodmedicalcenter.com/
Urgentology Care in Dallas|4130 N. Collins St.|Arlington|||||https://www.urgentologycare.com/services/covid-19-testing-and-screening/
Sinai Urgent Care|211 E FM 544|Murphy||972-200-3199|||
Austin Emergency Center South Lamar|4014 South Lamar Blvd|Austin||512-774-5780|||https://austiner.com/
Geneus|5726 West Hausman Road, Suite 112|San Antonio||844-800-2334|||https://www.geneushealth.com/contact-us
Gustafson Stadium|7001 Culebra Rd.|San Antonio|||||
Freeman Coliseum|3201 E Houston St.|San Antonio|||||
South Texas Medical Center|8431 Fredericksburg Rd.|San Antonio|||||https://southtexasmed.com/
Farmington Health Center|165 N. University Ave|Farmington|MF 8 -6 SS 10- 3 |801-587-0712 |coronavirus symptoms|need referral|https://healthcare.utah.edu/publicaffairs/news/2020/03/covid19-evaluations.php
Provo Town Centre Mall|1200 Towne Centre Blvd|Provo|||||https://www.heraldextra.com/news/local/covid-19-testing-capacity-increases-in-utah-county/collection_e5c3ed6e-d6e8-56d8-ac8c-7f327ea672d3.html#1
Redwood Health Center|1525 2100 South|Salt Lake City|MF 8 -6 SS 10- 3 |801-587-0712 |coronavirus symptoms|need referral|https://healthcare.utah.edu/publicaffairs/news/2020/03/covid19-evaluations.php
South Jordan Health Center|5126 W. Daybreak Pkwy|South Jordan|MF 8 -6 SS 10- 3 |801-587-0712 |coronavirus symptoms|need referral|https://healthcare.utah.edu/publicaffairs/news/2020/03/covid19-evaluations.php
Sugar House Health Center|1280 E. Stringham Ave|Salt Lake City|MF 8 -6 SS 10- 3|801-587-0712 |coronavirus symptoms|need referral|https://healthcare.utah.edu/publicaffairs/news/2020/03/covid19-evaluations.php
Timpanogos Regional Hospital||Orem|||get assessed here http://testutah.com||https://www.heraldextra.com/news/local/covid-19-testing-capacity-increases-in-utah-county/collection_e5c3ed6e-d6e8-56d8-ac8c-7f327ea672d3.html#1
Heber Valley InstaCare|1485 South Hwy 40|Heber||844-442-5224|call ahead||https://hebervalleylife.com/covid-19-testing-increased-in-wasatch-back/
Park City InstaCare|1750 Sidewinder Drive|Park City||844-442-5224|call ahead||https://hebervalleylife.com/covid-19-testing-increased-in-wasatch-back/
Park City Ice Arena|600 Gilmore Way|Park City|M-F 9-6; S-S 12-6||||https://hebervalleylife.com/covid-19-testing-increased-in-wasatch-back/
Alta View InstaCare|9450 S 1300 E|Sandy|9 a.m. to 5 p.m.||||https://intermountainhealthcare.org/covid19-coronavirus/get-testing/locations-requiring-an-order/
Fillmore Clinic|700 S Highway 99|Fillmore|MF 9 a.m. to 4:30 p.m.|435-743-5555||Need testing order|https://intermountainhealthcare.org/covid19-coronavirus/get-testing/locations-requiring-an-order/
Garfield Memorial Hospital|200 N 400 E|Panguitch|MF 9 a.m. to 5:00 p.m.|||Need testing order|https://intermountainhealthcare.org/covid19-coronavirus/get-testing/locations-requiring-an-order/
Herber InstaCare|1485 S Highway 40 Ste G|Heber|9 a.m. to 5 p.m.|||Need testing order|https://intermountainhealthcare.org/covid19-coronavirus/get-testing/locations-requiring-an-order/
Sevier Valley Clinic|1000 N Main Ste A|Richfield|9 a.m. to 5 p.m.|||Need testing order|https://intermountainhealthcare.org/covid19-coronavirus/get-testing/locations-requiring-an-order/
Davis Hospital and Medical Center|1600 Antelope Drive|Layton|9 a.m. to 5 p.m.|801-984-1577|||https://coronavirus.utah.gov/steward-health-care-testing-locations/
Jordan Valley Medical Center|3580 West 9000 South|West Jordan|9 a.m. to 5 p.m.|801-984-1577|||https://coronavirus.utah.gov/steward-health-care-testing-locations/
Mountain Point Medical Center|3000 North Triumph Blvd|Lehi|9 a.m. to 5 p.m.|801-984-1577|||https://coronavirus.utah.gov/steward-health-care-testing-locations/
Virginia Hospital Center |1429 N. Quincy St|Arlington|M-F 9-3 |703.558.5766||appt only|https://www.virginiahospitalcenter.com/
Parking lot at PM Pediatrics|11056 Lee Highway|Fairfax|10:30 a.m. to 7:15 a.m.|703-552-5437||need referral|https://pmpediatrics.com/location/virginia-fairfax/
Kaiser||Woodbridge|||||
Kaiser||Tysons|||||
Martinsville Speedway|340 Speedway Rd|Ridgeway|MWF 12:00 pm to 4 pm.|||Need referral|https://wset.com/news/local/drive-through-coronavirus-test-site-in-martinsville-opens-what-you-need-to-know
Southwestern Vermont Medical Center|140 Hospital Drive|Bennington|M-F 8 a.m. to 5 p.m.|||appt only|https://www.burlingtonfreepress.com/story/news/local/2020/03/09/vermont-hospital-treating-states-covid-19-case-drive-up-test/4998718002/
Providence Hawks Prairie Family Medicine|2555 Marvine Road N.E.|Lacey|||phone screen||https://www.seattletimes.com/seattle-news/health/how-and-where-to-be-tested-for-the-coronavirus-that-causes-covid-19/
Kaiser Permanente Lynnwood Medical Center|20200 54th Ave. W.|Lynwood|||||https://www.kiro7.com/news/local/where-are-coivd-19-drive-thru-test-sites-western-washington/FF47QNZ6OZGMVPQIM5YIEDMG3M/
Kaiser Permanente Puyallup Medical Center|1007 39th Ave. S.E|Puyallup|||||https://www.kiro7.com/news/local/where-are-coivd-19-drive-thru-test-sites-western-washington/FF47QNZ6OZGMVPQIM5YIEDMG3M/
Kaiser Permanente Factoria Medical Center|13451 S.E. 36th St.|Bellevue|||||https://www.kiro7.com/news/local/where-are-coivd-19-drive-thru-test-sites-western-washington/FF47QNZ6OZGMVPQIM5YIEDMG3M/
Everett Memorial Stadium|3900 Broadway|Everett|||||https://www.kiro7.com/news/local/where-are-coivd-19-drive-thru-test-sites-western-washington/FF47QNZ6OZGMVPQIM5YIEDMG3M/
Kaiser Permanente Olympia Medical Center|700 Lilly Road N.E.|Olympia|||||https://www.kiro7.com/news/local/where-are-coivd-19-drive-thru-test-sites-western-washington/FF47QNZ6OZGMVPQIM5YIEDMG3M/
Kaiser Permanente Capitol Hill Campus|201 16th Ave. E.|Seattle|||||https://www.kiro7.com/news/local/where-are-coivd-19-drive-thru-test-sites-western-washington/FF47QNZ6OZGMVPQIM5YIEDMG3M/
Kaiser Permanente Silverdale Medical Center|10452 Silverdale Way N.W.|Silverdale|||||https://www.kiro7.com/news/local/where-are-coivd-19-drive-thru-test-sites-western-washington/FF47QNZ6OZGMVPQIM5YIEDMG3M/
Kaiser Permanente Burien Medical Center|140 SW 146th St|Burien|||||https://www.kiro7.com/news/local/where-are-coivd-19-drive-thru-test-sites-western-washington/FF47QNZ6OZGMVPQIM5YIEDMG3M/
PacMed Northgate clinic|10416 5th Ave NE|Seattle|||||https://www.kiro7.com/news/local/where-are-coivd-19-drive-thru-test-sites-western-washington/FF47QNZ6OZGMVPQIM5YIEDMG3M/
PacMed Beacon Hill clinic|Pacific Tower, 1200 12th Ave S|Seattle|||||
PacMed Renton clinic|601 S Carr|Renton|||||
Parking Garage at Swedish Medical Center Issaquah|751 N.E. Blakely Drive|Issaquah|||||https://www.kiro7.com/news/local/where-are-coivd-19-drive-thru-test-sites-western-washington/FF47QNZ6OZGMVPQIM5YIEDMG3M/
Yakima Valley Sundome|1301 S Fair Ave|Yakima|9 a.m. to 4 p.m.||Must have fever, cough, shortness of breath, and high-risk|Appt only|https://www.yakimaherald.com/special_projects/coronavirus/new-drive-thru-testing-site-to-launch-for-select-yakima-county-residents-deaths-rise-to/article_d0c6b24b-5e14-5e53-81ed-9f283211fcb1.html
Army National Guard Base|1211 Carver St.|Bremerton|10 a.m. to 2:30 p.m.|360-728-2235 ||Register online|https://www.kitsapsun.com/story/news/2020/04/07/kitsap-drive-thru-covid-testing-near-me-coronavirus-washington-cases/2964380001/
University of Washington Medicine|10330 Meridian Ave. N.|Seattle|||UW Patients only||https://www.seattletimes.com/seattle-news/health/how-and-where-to-be-tested-for-the-coronavirus-that-causes-covid-19/
Providence Regional Medical Center|1700 13th St|Everett|||||https://www.seattletimes.com/seattle-news/health/how-and-where-to-be-tested-for-the-coronavirus-that-causes-covid-19/
Providence Regional Medical Center|19200 N. Kelsey St.|Monroe||||Appt only|https://www.seattletimes.com/seattle-news/health/how-and-where-to-be-tested-for-the-coronavirus-that-causes-covid-19/
International Community Health Services|720 Eigth ave. S.|Seattle||206-788-3700|||https://www.seattletimes.com/seattle-news/health/how-and-where-to-be-tested-for-the-coronavirus-that-causes-covid-19/
International Community Health Services|16549 Aurora Ave|Shoreline||206-533-2600|||https://www.seattletimes.com/seattle-news/health/how-and-where-to-be-tested-for-the-coronavirus-that-causes-covid-19/
Seattle Children's Hospital|5801 Sand Point Way N.E.|Seattle|||||https://www.seattletimes.com/seattle-news/health/how-and-where-to-be-tested-for-the-coronavirus-that-causes-covid-19/
Healthpoint|955 Powell Ave. S.W.|Renton|||||https://www.seattletimes.com/seattle-news/health/how-and-where-to-be-tested-for-the-coronavirus-that-causes-covid-19/
Downtown Public Health Center|2124 Fourth Ave.|Seattle|||||https://www.seattletimes.com/seattle-news/health/how-and-where-to-be-tested-for-the-coronavirus-that-causes-covid-19/
Ascension SE Wisconsin Hospital - Franklin Campus |10101 S 27th St|Franklin||833-981-0711||need referral|https://patch.com/wisconsin/milwaukee/ascension-clarifies-drive-through-coronavirus-testing-rules
Ascension Columbia St. Mary's Milwaukee - Gateway Clinic|801 S 70th St|West Allis||833-981-0711||need referral|https://patch.com/wisconsin/milwaukee/ascension-clarifies-drive-through-coronavirus-testing-rules
Ascension St. Francis Medical Arts Pavilion|2025 W Oklahoma Av|Milkwaukee||833-981-0711||need referral|https://patch.com/wisconsin/milwaukee/ascension-clarifies-drive-through-coronavirus-testing-rules
Ascension Wisconsin Health Center - Mount Pleasant Urgent Care|10180 Washington Ave,|Mt Pleasant||833-981-0711||need referral|https://patch.com/wisconsin/milwaukee/ascension-clarifies-drive-through-coronavirus-testing-rules
Ascension SE Wisconsin Hospital - Mayfair Road Urgent Care| 201 N Mayfair Rd|Wauwatosa||833-981-0711||need referral|https://patch.com/wisconsin/milwaukee/ascension-clarifies-drive-through-coronavirus-testing-rules
Grafton High School|1950 Washington St|Grafton||833-981-0711||need referral|https://patch.com/wisconsin/milwaukee/ascension-clarifies-drive-through-coronavirus-testing-rules
Ascension SE Wisconsin Hospital - St. Joseph Campus|5000 W Chambers St|Milwaukee||833-981-0711||need referral|https://patch.com/wisconsin/milwaukee/ascension-clarifies-drive-through-coronavirus-testing-rules
Ascension SE Wisconsin Hospital - Elmbrook Campus|19333 W North Ave|Brookfield||833-981-0711||need referral|https://patch.com/wisconsin/milwaukee/ascension-clarifies-drive-through-coronavirus-testing-rules
Froedtert Pleasant Prairie Hospital|9555 76th St|Pleasant Prairie||262-671-7777||appt only|
University Town Centre|6040 University Town Centre Drive,|Morgantown|10 a.m. to 4 p.m|304-598-6000||need referral|https://wvumedicine.org/news/article/wvu-medicine-to-offer-pre-screened-patients-drive-through-specimen-collection-for-covid-19/
Mon Health|1200 J D Anderson Dr|Morgantown|MF 9 a.m to 1 p.m, 2 p.m. to 7 p.m.|304-285-3798||pre screen/pre-register|https://www.newstribune.info/news/20200324/where-in-wva-can-i-get-coronavirus-test
Dr. Ayne Amjadu2019s office|330 N Eisenhower Drive|Beckley|10am to 12pm|304-252-5900||Appt only|https://www.newstribune.info/news/20200324/where-in-wva-can-i-get-coronavirus-test
Camden Clark Medical Center|800 Garfield Ave, Parkersburg|Parkersburg|10 a.m. to 4 p.m|304-598-6000||need referral|https://wvumedicine.org/news/article/wvu-medicine-to-offer-pre-screened-patients-drive-through-specimen-collection-for-covid-19/
United Hospital Center u2028|327 Medical Park Drive|Bridgeport|10 a.m. to 4 p.m|304-598-6000||need referral|https://wvumedicine.org/news/article/wvu-medicine-to-offer-pre-screened-patients-drive-through-specimen-collection-for-covid-19/
Wheeling Park parking lotu2028|1801 National Rd|Wheeling|10 a.m. to 4 p.m|304-221-3995||need referral|https://wvumedicine.org/news/article/wvu-medicine-to-offer-pre-screened-patients-drive-through-specimen-collection-for-covid-19/
Berkeley Medical Center|2500 Hospital Dr|Martinsburg|10 a.m. to 4 p.m|304-598-6000||need referral|https://wvumedicine.org/news/article/wvu-medicine-to-offer-pre-screened-patients-drive-through-specimen-collection-for-covid-19/
Princeton Community Hospital|122 12th Street|Princetown|MF 10 a.m. to 2 p.m.|304-487-7000||need referral|https://pchonline.org/
Davis Medical Center|812 Gorman Avenue|Elkins|8 a.m. to 5 p.m.|304-630-3088|||
St. Maryu2019s Center|2853 5th Avenue,|Huntington|10-4 M-F|304-696-2900|referral and pre-screen||https://www.marshallhealth.org/news/drive-through-covid-19-testing-center-opens-in-huntington/
Home Medical Resources|901 W. Second Street|Gillette||307-688-1000|call to get screened first||https://k2radio.com/drive-thru-screening-under-criteria-in-campbell-county-begins/
